
G92 X-46
G92 Y-53.4
G1 X20.207 Y42.335 
G1 Z20
;CALIBRATION_END
G21 ; set units to millimeters
G90 ; use absolute coordinates
M82 ; use absolute distances for extrusion
G92 E0
G1 Z8.100 F4800.000
G1  F4800.00000
G92 E0
G1 Z13.100 F4800.000
G1 X17.667 Y39.795 F4800.000
G1 Z8.100 F4800.000
G1  F4800.00000
G1 X17.785 Y39.530  F120.000
G1 X18.001 Y39.336 
G1 X18.277 Y39.246 
G1 X18.566 Y39.276 
G1 X18.817 Y39.421 
G1 X18.987 Y39.656 
G1 X19.048 Y39.940 
G1 X18.987 Y40.224 
G1 X18.817 Y40.459 
G1 X18.602 Y40.585 
G1 X18.318 Y40.632 
G1 X18.237 Y40.623 
G1 X18.001 Y40.544 
G1 X17.785 Y40.350 
G1 X17.667 Y40.085 
G1 X17.667 Y39.795 
G1  F4800.00000
G92 E0
G1 Z13.100 F4800.000
G1 X20.667 Y40.540 F4800.000
G1 Z8.100 F4800.000
G1  F4800.00000
G1 X20.822 Y40.590  F120.000
G1 X21.121 Y40.558 
G1 X21.121 Y41.862 
G1 X20.822 Y41.830 
G1 X20.667 Y41.880 
G1 X20.667 Y40.585 
G1 X20.788 Y40.648 F4800.000
G1 X20.392 Y40.676 F4800.000
G1 X20.320 Y40.341  F120.000
G1 X20.207 Y40.085 
G1 X20.207 Y39.795 
G1 X20.307 Y39.567 
G1 X20.355 Y39.501 
G1 X20.541 Y39.336 
G1 X20.817 Y39.246 
G1 X21.106 Y39.276 
G1 X21.322 Y39.399 
G1 X21.383 Y39.453 
G1 X21.527 Y39.656 
G1 X21.588 Y39.940 
G1 X21.527 Y40.224 
G1 X21.271 Y40.580 
G1  F4800.00000
G92 E0
G1 Z13.100 F4800.000
G1 X21.271 Y41.840 F4800.000
G1 Z8.100 F4800.000
G1  F4800.00000
G1 X21.527 Y42.196  F120.000
G1 X21.588 Y42.480 

G1 X21.383 Y42.967 
G1 X21.322 Y43.021 
G1 X21.106 Y43.144 
G1 X20.817 Y43.174 
G1 X20.355 Y42.919 
G1 X20.307 Y42.853 
G1 X20.207 Y42.625 
G1 X20.207 Y42.335 
G1 X20.320 Y42.079 
G1 X20.392 Y41.744 
G1 X20.894 Y41.719 F4800.000
G1 X20.894 Y40.701  F120.000
G1  F4800.00000
G92 E0
G1 Z13.100 F4800.000
G1 X27.017 Y43.080 F4800.000
G1 Z8.100 F4800.000
G1  F4800.00000
G1 X27.172 Y43.130  F120.000
G1 X27.471 Y43.098 
G1 X27.471 Y44.402 
G1 X27.172 Y44.370 
G1 X27.017 Y44.420 
G1 X27.017 Y43.125 
G1 X27.138 Y43.188 F4800.000
G1 X26.742 Y43.216 F4800.000
G1 X26.670 Y42.881  F120.000
G1 X26.557 Y42.625 
G1 X26.555 Y42.376 
G1 X26.572 Y42.296 
G1 X26.670 Y42.079 
G1 X26.742 Y41.744 
G1 X27.621 Y41.840 F4800.000
G1 X27.877 Y42.196  F120.000
G1 X27.938 Y42.480 
G1 X27.877 Y42.764 
G1 X27.621 Y43.120 
G1  F4800.00000
G92 E0
G1 Z13.100 F4800.000
G1 X27.621 Y44.380 F4800.000
G1 Z8.100 F4800.000
G1  F4800.00000
G1 X27.877 Y44.736  F120.000
G1 X27.938 Y45.020 
G1 X27.877 Y45.304 
G1 X27.733 Y45.507 
G1 X27.672 Y45.561 
G1 X27.456 Y45.684 
G1 X27.167 Y45.714 
G1 X26.891 Y45.624 
G1 X26.705 Y45.459 
G1 X26.657 Y45.394 
G1 X26.557 Y45.165 
G1 X26.557 Y44.875 
G1 X26.670 Y44.619 
G1 X26.742 Y44.284 
G1  F4800.00000
G92 E0
G1 Z13.100 F4800.000
G1 X27.017 Y41.880 F4800.000
G1 Z8.100 F4800.000
G1  F4800.00000
G1 X27.017 Y40.540  F120.000
G1 X27.172 Y40.590 
G1 X27.471 Y40.558 
G1 X27.471 Y41.862 
G1 X27.172 Y41.830 
G1 X27.060 Y41.866 
G1 X27.139 Y41.606 F4800.000
G1  F4800.00000
G92 E0
G1 Z13.100 F4800.000
G1 X27.621 Y40.580 F4800.000
G1 Z8.100 F4800.000
G1  F4800.00000
G1 X27.877 Y40.224  F120.000
G1 X27.938 Y39.940 
G1 X27.877 Y39.656 
G1 X27.707 Y39.421 
G1 X27.456 Y39.276 
G1 X27.167 Y39.246 
G1 X26.891 Y39.336 
G1 X26.638 Y39.561 
G1 X26.642 Y40.169 F4800.000
G1 X24.166 Y40.169  F120.000
G1 X24.142 Y40.203 
G1 X24.037 Y40.156 
G1 X24.083 Y39.940 
G1 X24.037 Y39.724 
G1 X24.142 Y39.677 
G1 X24.166 Y39.711 
G1 X26.642 Y39.711 
G1 X26.601 Y39.804 
G1 X26.601 Y40.076 
G1 X26.624 Y40.128 
G1 X26.364 Y40.057 F4800.000
G1  F4800.00000
G92 E0
G1 Z13.100 F4800.000
G1 X24.096 Y39.534 F4800.000
G1 Z8.100 F4800.000
G1  F4800.00000
G1 X23.646 Y39.276  F120.000
G1 X23.357 Y39.246 
G1 X23.119 Y39.321 
G1 X23.049 Y39.362 
G1 X22.865 Y39.530 
G1 X22.747 Y39.795 
G1 X22.745 Y40.044 
G1 X22.762 Y40.124 
G1 X22.895 Y40.379 
G1 X23.081 Y40.544 
G1 X23.357 Y40.634 
G1 X23.646 Y40.604 
G1 X24.096 Y40.346 
G1 X24.204 Y39.940 F4800.000
G1 X26.483 Y39.940  F120.000
G1  F4800.00000
G92 E0
G1 Z13.100 F4800.000
G1 X27.244 Y40.701 F4800.000
G1 Z8.100 F4800.000
G1  F4800.00000
G1 X27.244 Y41.719  F120.000
G1  F4800.00000
G92 E0
G1 Z13.100 F4800.000
G1 X27.244 Y43.241 F4800.000
G1 Z8.100 F4800.000
G1  F4800.00000
G1 X27.244 Y44.259  F120.000
G1  F4800.00000
G92 E0
G1 Z13.100 F4800.000
G1 X27.332 Y37.359 F4800.000
G1 Z8.100 F4800.000
G1  F4800.00000
G1 X27.341 Y37.400  F120.000
G1 X27.307 Y37.475 
G1 X27.206 Y37.503 
G1 X24.062 Y37.503 
G1 X24.083 Y37.400 
G1 X24.062 Y37.297 
G1 X27.287 Y37.297 
G1 X27.305 Y37.323 
G1 X27.305 Y37.391 F4800.000
G1 X27.242 Y37.147 F4800.000
G1 X27.242 Y34.478  F120.000
G1  F4800.00000
G92 E0
G1 Z13.100 F4800.000
G1 X24.093 Y37.147 F4800.000
G1 Z8.100 F4800.000
G1  F4800.00000
G1 X23.923 Y36.913  F120.000
G1 X23.862 Y36.859 
G1 X23.646 Y36.736 
G1 X23.357 Y36.706 
G1 X23.081 Y36.796 
G1 X22.895 Y36.961 
G1 X22.762 Y37.216 
G1 X22.745 Y37.296 
G1 X22.747 Y37.545 
G1 X22.865 Y37.810 
G1 X23.081 Y38.004 
G1 X23.357 Y38.094 
G1 X23.646 Y38.064 
G1 X23.862 Y37.941 
G1 X23.923 Y37.887 
G1 X24.093 Y37.653 
G1  F4800.00000
G92 E0
G1 Z13.100 F4800.000
G1 X27.142 Y34.204 F4800.000
G1 Z8.100 F4800.000
G1  F4800.00000
G1 X27.190 Y34.138  F120.000
G1 X27.237 Y34.122 
G1 X32.927 Y34.122 
G1 X32.927 Y34.096 
G1 X34.608 Y34.096 
G1 X34.608 Y34.354 
G1 X32.927 Y34.354 
G1 X32.927 Y34.328 
G1 X27.184 Y34.328 
G1 X27.145 Y34.248 
G1 X27.222 Y34.187 F4800.000
G1  F4800.00000
G92 E0
G1 Z13.100 F4800.000
G1 X25.582 Y34.819 F4800.000
G1 Z8.100 F4800.000
G1  F4800.00000
G1 X25.591 Y34.860  F120.000
G1 X25.557 Y34.935 
G1 X25.456 Y34.963 
G1 X24.062 Y34.963 
G1 X24.083 Y34.860 
G1 X24.062 Y34.757 
G1 X25.537 Y34.757 
G1 X25.555 Y34.783 
G1 X25.555 Y34.851 F4800.000
G1 X25.492 Y34.607 F4800.000
G1 X25.492 Y33.208  F120.000
G1  F4800.00000
G92 E0
G1 Z13.100 F4800.000
G1 X24.093 Y34.607 F4800.000
G1 Z8.100 F4800.000
G1  F4800.00000
G1 X23.923 Y34.373  F120.000
G1 X23.862 Y34.319 
G1 X23.646 Y34.196 
G1 X23.357 Y34.166 
G1 X23.081 Y34.256 
G1 X22.895 Y34.421 
G1 X22.762 Y34.676 
G1 X22.745 Y34.756 
G1 X22.747 Y35.005 
G1 X22.865 Y35.270 
G1 X23.081 Y35.464 
G1 X23.357 Y35.554 
G1 X23.646 Y35.524 
G1 X23.862 Y35.401 
G1 X23.923 Y35.347 
G1 X24.093 Y35.113 
G1  F4800.00000
G92 E0
G1 Z13.100 F4800.000
G1 X25.392 Y32.934 F4800.000
G1 Z8.100 F4800.000
G1  F4800.00000
G1 X25.440 Y32.868  F120.000
G1 X25.487 Y32.852 
G1 X32.927 Y32.852 
G1 X32.927 Y32.826 
G1 X34.608 Y32.826 
G1 X34.608 Y33.084 
G1 X32.927 Y33.084 
G1 X32.927 Y33.058 
G1 X25.434 Y33.058 
G1 X25.395 Y32.978 
G1 X25.472 Y32.917 F4800.000
G1  F4800.00000
G92 E0
G1 Z13.100 F4800.000
G1 X22.946 Y32.671 F4800.000
G1 Z8.100 F4800.000
G1  F4800.00000
G1 X22.845 Y32.444  F120.000
G1 X22.845 Y32.196 
G1 X22.946 Y31.969 
G1 X23.131 Y31.802 
G1 X23.367 Y31.725 
G1 X23.615 Y31.751 
G1 X23.830 Y31.876 
G1 X23.976 Y32.077 
G1 X24.028 Y32.320 
G1 X23.976 Y32.563 
G1 X23.830 Y32.764 
G1 X23.615 Y32.889 
G1 X23.367 Y32.915 
G1 X23.131 Y32.838 
G1 X22.980 Y32.702 
G1 X22.698 Y32.680 F4800.000
G1  F4800.00000
G92 E0
G1 Z13.100 F4800.000
G1 X24.063 Y31.784 F4800.000
G1 Z8.100 F4800.000
G1  F4800.00000
G1 X24.177 Y32.320  F120.000
G1 X24.112 Y32.624 
G1 X23.930 Y32.875 
G1 X23.661 Y33.030 
G1 X23.352 Y33.063 
G1 X23.057 Y32.967 
G1 X22.826 Y32.759 
G1 X22.700 Y32.475 
G1 X22.700 Y32.165 
G1 X22.826 Y31.881 
G1 X23.057 Y31.673 
G1 X23.360 Y31.575 
G1 X32.927 Y31.587 
G1 X32.927 Y31.556 
G1 X34.608 Y31.556 
G1 X34.608 Y31.814 
G1 X32.927 Y31.814 
G1 X32.927 Y31.784 
G1 X24.108 Y31.784 
G1 X23.766 Y31.825 F4800.000
G1  F4800.00000
G92 E0
G1 Z13.100 F4800.000
G1 X51.276 Y37.201 F4800.000
G1 Z8.100 F4800.000
G1  F4800.00000
G1 X51.276 Y35.513  F120.000
G1 X51.521 Y35.487 
G1 X51.557 Y35.596 
G1 X51.470 Y35.646 
G1 X51.470 Y37.284 
G1 X51.458 Y37.339 
G1 X51.400 Y37.392 
G1 X46.548 Y37.399 
G1 X46.502 Y37.384 
G1 X46.456 Y37.320 
G1 X46.490 Y37.201 
G1 X51.230 Y37.201 
G1 X51.575 Y37.201 F4800.000
G1  F4800.00000
G92 E0
G1 Z13.100 F4800.000
G1 X51.704 Y35.565 F4800.000
G1 Z8.100 F4800.000
G1  F4800.00000
G1 X52.007 Y35.144  F120.000
G1 X52.068 Y34.860 
G1 X52.007 Y34.576 
G1 X51.863 Y34.373 
G1 X51.802 Y34.319 
G1 X51.586 Y34.196 
G1 X51.297 Y34.166 
G1 X51.021 Y34.256 
G1 X50.835 Y34.421 
G1 X50.787 Y34.486 
G1 X50.687 Y34.715 
G1 X50.687 Y35.005 
G1 X50.805 Y35.270 
G1 X51.125 Y35.561 
G1  F4800.00000
G92 E0
G1 Z13.100 F4800.000
G1 X46.552 Y37.051 F4800.000
G1 Z8.100 F4800.000
G1  F4800.00000
G1 X46.552 Y31.938  F120.000
G1 X46.651 Y31.685 F4800.000
G1 X46.597 Y31.788  F120.000
G1 X39.333 Y31.788 
G1 X39.333 Y31.814 
G1 X37.652 Y31.814 
G1 X37.652 Y31.556 
G1 X39.333 Y31.556 
G1 X39.333 Y31.582 
G1 X46.605 Y31.593 
G1 X46.640 Y31.642 
G1 X46.542 Y31.725 F4800.000
G1  F4800.00000
G92 E0
G1 Z13.100 F4800.000
G1 X51.276 Y38.769 F4800.000
G1 Z8.100 F4800.000
G1  F4800.00000
G1 X45.018 Y38.769  F120.000
G1 X44.942 Y38.727 
G1 X44.926 Y38.650 
G1 X44.961 Y38.571 
G1 X51.423 Y38.582 
G1 X51.470 Y38.686 
G1 X51.470 Y40.424 
G1 X51.557 Y40.474 
G1 X51.521 Y40.583 
G1 X51.276 Y40.557 
G1 X51.276 Y38.814 
G1 X51.276 Y38.469 F4800.000
G1  F4800.00000
G92 E0
G1 Z13.100 F4800.000
G1 X51.704 Y40.505 F4800.000
G1 Z8.100 F4800.000
G1  F4800.00000
G1 X52.007 Y40.926  F120.000
G1 X52.068 Y41.210 
G1 X52.007 Y41.494 
G1 X51.863 Y41.697 
G1 X51.802 Y41.751 
G1 X51.586 Y41.874 
G1 X51.297 Y41.904 
G1 X51.021 Y41.814 
G1 X50.835 Y41.649 
G1 X50.787 Y41.584 
G1 X50.687 Y41.355 
G1 X50.687 Y41.065 
G1 X50.805 Y40.800 
G1 X51.125 Y40.509 
G1  F4800.00000
G92 E0
G1 Z13.100 F4800.000
G1 X45.022 Y38.421 F4800.000
G1 Z8.100 F4800.000
G1  F4800.00000
G1 X45.022 Y33.208  F120.000
G1 X45.121 Y32.955 F4800.000
G1 X45.067 Y33.058  F120.000
G1 X39.333 Y33.058 
G1 X39.333 Y33.084 
G1 X37.652 Y33.084 
G1 X37.652 Y32.826 
G1 X39.333 Y32.826 
G1 X39.333 Y32.852 
G1 X44.986 Y32.852 
G1 X45.051 Y32.859 
G1 X45.110 Y32.912 
G1 X45.015 Y33.001 F4800.000
G1  F4800.00000
G92 E0
G1 Z13.100 F4800.000
G1 X46.195 Y46.389 F4800.000
G1 Z8.100 F4800.000
G1  F4800.00000
G1 X43.308 Y46.389  F120.000
G1 X43.232 Y46.347 
G1 X43.215 Y46.270 
G1 X43.250 Y46.191 
G1 X46.256 Y46.191 
G1 X46.355 Y46.218 
G1 X46.390 Y46.306 
G1 X46.390 Y48.731 
G1 X51.276 Y48.731 
G1 X51.276 Y46.943 
G1 X51.521 Y46.917 
G1 X51.557 Y47.026 
G1 X51.470 Y47.076 
G1 X51.458 Y48.869 
G1 X51.400 Y48.922 
G1 X51.336 Y48.929 
G1 X46.288 Y48.929 
G1 X46.242 Y48.914 
G1 X46.195 Y48.850 
G1 X46.195 Y46.434 
G1 X46.195 Y46.089 F4800.000
G1  F4800.00000
G92 E0
G1 Z13.100 F4800.000
G1 X43.312 Y46.041 F4800.000
G1 Z8.100 F4800.000
G1  F4800.00000
G1 X43.312 Y34.478  F120.000
G1 X43.411 Y34.225 F4800.000
G1 X43.357 Y34.328  F120.000
G1 X39.333 Y34.328 
G1 X39.333 Y34.354 
G1 X37.652 Y34.354 
G1 X37.652 Y34.096 
G1 X39.333 Y34.096 
G1 X39.333 Y34.122 
G1 X43.276 Y34.122 
G1 X43.341 Y34.129 
G1 X43.400 Y34.182 
G1 X43.305 Y34.271 F4800.000
G1  F4800.00000
G92 E0
G1 Z13.100 F4800.000
G1 X51.125 Y46.991 F4800.000
G1 Z8.100 F4800.000
G1  F4800.00000
G1 X50.805 Y46.700  F120.000
G1 X50.687 Y46.435 
G1 X50.687 Y46.145 
G1 X50.787 Y45.916 
G1 X50.835 Y45.851 
G1 X51.021 Y45.686 
G1 X51.297 Y45.596 
G1 X51.586 Y45.626 
G1 X51.802 Y45.749 
G1 X51.863 Y45.803 
G1 X52.007 Y46.006 
G1 X52.068 Y46.290 
G1 X52.007 Y46.574 
G1 X51.704 Y46.995 
G1  F4800.00000
G92 E0
G1 Z13.100 F4800.000
G1 X38.774 Y41.313 F4800.000
G1 Z8.100 F4800.000
G1  F4800.00000
G1 X38.774 Y45.507  F120.000
G1 X38.856 Y45.554 
G1 X38.821 Y45.663 
G1 X38.572 Y45.637 
G1 X38.572 Y41.189 
G1 X38.589 Y41.151 
G1 X38.667 Y41.107 
G1 X41.257 Y41.107 
G1 X41.311 Y41.210 
G1 X41.277 Y41.285 
G1 X41.176 Y41.313 
G1 X38.819 Y41.313 
G1 X38.474 Y41.313 F4800.000
G1  F4800.00000
G92 E0
G1 Z13.100 F4800.000
G1 X41.212 Y40.957 F4800.000
G1 Z8.100 F4800.000
G1  F4800.00000
G1 X41.212 Y35.748  F120.000
G1  F4800.00000
G92 E0
G1 Z13.100 F4800.000
G1 X37.652 Y35.624 F4800.000
G1 Z8.100 F4800.000
G1  F4800.00000
G1 X37.652 Y35.366  F120.000
G1 X39.333 Y35.366 
G1 X39.333 Y35.392 
G1 X41.176 Y35.392 
G1 X41.277 Y35.420 
G1 X41.311 Y35.495 
G1 X41.257 Y35.598 
G1 X39.333 Y35.598 
G1 X39.333 Y35.624 
G1 X37.697 Y35.624 
G1 X37.781 Y35.400 F4800.000
G1  F4800.00000
G92 E0
G1 Z13.100 F4800.000
G1 X39.004 Y45.585 F4800.000
G1 Z8.100 F4800.000
G1  F4800.00000
G1 X39.307 Y46.006  F120.000
G1 X39.368 Y46.290 
G1 X39.307 Y46.574 
G1 X39.163 Y46.777 
G1 X39.102 Y46.831 
G1 X38.886 Y46.954 
G1 X38.597 Y46.984 
G1 X38.321 Y46.894 
G1 X38.135 Y46.729 
G1 X38.087 Y46.664 
G1 X37.987 Y46.435 
G1 X37.987 Y46.145 
G1 X38.105 Y45.880 
G1 X38.422 Y45.592 
G1  F4800.00000
G92 E0
G1 Z13.100 F4800.000
G1 X38.394 Y36.894 F4800.000
G1 Z8.100 F4800.000
G1  F4800.00000
G1 X37.652 Y36.894  F120.000
G1 X37.652 Y36.636 
G1 X39.333 Y36.636 
G1 X39.333 Y36.894 
G1 X38.596 Y36.894 
G1 X38.596 Y38.654 
G1 X38.547 Y38.762 
G1 X33.694 Y38.773 
G1 X33.694 Y51.267 
G1 X38.572 Y51.267 
G1 X38.572 Y49.483 
G1 X38.821 Y49.457 
G1 X38.856 Y49.566 
G1 X38.774 Y49.613 
G1 X38.762 Y51.411 
G1 X38.701 Y51.466 
G1 X38.636 Y51.473 
G1 X33.587 Y51.473 
G1 X33.540 Y51.457 
G1 X33.492 Y51.391 
G1 X33.492 Y38.649 
G1 X33.540 Y38.583 
G1 X33.587 Y38.567 
G1 X38.394 Y38.567 
G1 X38.394 Y36.939 
G1 X38.394 Y36.594 F4800.000
G1  F4800.00000
G92 E0
G1 Z13.100 F4800.000
G1 X39.004 Y49.535 F4800.000
G1 Z8.100 F4800.000
G1  F4800.00000
G1 X39.307 Y49.114  F120.000
G1 X39.368 Y48.830 
G1 X39.307 Y48.546 
G1 X39.163 Y48.343 
G1 X39.102 Y48.289 
G1 X38.886 Y48.166 
G1 X38.597 Y48.136 
G1 X38.321 Y48.226 
G1 X38.135 Y48.391 
G1 X38.087 Y48.456 
G1 X37.987 Y48.685 
G1 X37.987 Y48.975 
G1 X38.105 Y49.240 
G1 X38.422 Y49.528 
G1  F4800.00000
G92 E0
G1 Z13.100 F4800.000
G1 X36.361 Y46.908 F4800.000
G1 Z8.100 F4800.000
G1  F4800.00000
G1 X36.361 Y48.212  F120.000
G1 X36.062 Y48.180 
G1 X35.907 Y48.230 
G1 X35.907 Y46.890 
G1 X36.062 Y46.940 
G1 X36.316 Y46.913 
G1 X36.220 Y47.173 F4800.000
G1 X35.632 Y47.026 F4800.000
G1 X35.560 Y46.691  F120.000
G1 X35.462 Y46.474 
G1 X35.445 Y46.394 
G1 X35.447 Y46.145 
G1 X35.560 Y45.889 
G1 X35.632 Y45.554 
G1 X36.511 Y45.650 F4800.000
G1 X36.767 Y46.006  F120.000
G1 X36.828 Y46.290 
G1 X36.767 Y46.574 
G1 X36.511 Y46.930 
G1  F4800.00000
G92 E0
G1 Z13.100 F4800.000
G1 X36.511 Y48.190 F4800.000
G1 Z8.100 F4800.000
G1  F4800.00000
G1 X36.767 Y48.546  F120.000
G1 X36.828 Y48.830 
G1 X36.767 Y49.114 
G1 X36.623 Y49.317 
G1 X36.562 Y49.371 
G1 X36.346 Y49.494 
G1 X36.057 Y49.524 
G1 X35.781 Y49.434 
G1 X35.595 Y49.269 
G1 X35.547 Y49.204 
G1 X35.447 Y48.975 
G1 X35.447 Y48.685 
G1 X35.560 Y48.429 
G1 X35.632 Y48.094 
G1  F4800.00000
G92 E0
G1 Z13.100 F4800.000
G1 X35.632 Y44.486 F4800.000
G1 Z8.100 F4800.000
G1  F4800.00000
G1 X35.560 Y44.151  F120.000
G1 X35.462 Y43.934 
G1 X35.445 Y43.854 
G1 X35.447 Y43.605 
G1 X35.560 Y43.349 
G1 X35.632 Y43.014 
G1 X36.511 Y43.110 F4800.000
G1 X36.767 Y43.466  F120.000
G1 X36.828 Y43.750 
G1 X36.767 Y44.034 
G1 X36.511 Y44.390 
G1  F4800.00000
G92 E0
G1 Z13.100 F4800.000
G1 X36.361 Y45.672 F4800.000
G1 Z8.100 F4800.000
G1  F4800.00000
G1 X36.062 Y45.640  F120.000
G1 X35.907 Y45.690 
G1 X35.907 Y44.350 
G1 X36.062 Y44.400 
G1 X36.361 Y44.368 
G1 X36.361 Y45.627 
G1 X36.112 Y45.504 F4800.000
G1  F4800.00000
G92 E0
G1 Z13.100 F4800.000
G1 X35.632 Y41.946 F4800.000
G1 Z8.100 F4800.000
G1  F4800.00000
G1 X35.560 Y41.611  F120.000
G1 X35.447 Y41.355 
G1 X35.447 Y41.065 
G1 X35.547 Y40.836 
G1 X35.595 Y40.771 
G1 X35.781 Y40.606 
G1 X36.057 Y40.516 
G1 X36.346 Y40.546 
G1 X36.562 Y40.669 
G1 X36.623 Y40.723 
G1 X36.767 Y40.926 
G1 X36.828 Y41.210 
G1 X36.767 Y41.494 
G1 X36.511 Y41.850 
G1  F4800.00000
G92 E0
G1 Z13.100 F4800.000
G1 X36.361 Y43.132 F4800.000
G1 Z8.100 F4800.000
G1  F4800.00000
G1 X36.062 Y43.100  F120.000
G1 X35.907 Y43.150 
G1 X35.907 Y41.810 
G1 X36.062 Y41.860 
G1 X36.361 Y41.828 
G1 X36.361 Y43.087 
G1 X36.112 Y42.964 F4800.000
G1 X36.134 Y42.989 F4800.000
G1 X36.134 Y41.971  F120.000
G1  F4800.00000
G92 E0
G1 Z13.100 F4800.000
G1 X36.134 Y44.511 F4800.000
G1 Z8.100 F4800.000
G1  F4800.00000
G1 X36.134 Y45.529  F120.000
G1  F4800.00000
G92 E0
G1 Z13.100 F4800.000
G1 X36.134 Y47.051 F4800.000
G1 Z8.100 F4800.000
G1  F4800.00000
G1 X36.134 Y48.069  F120.000
G1  F4800.00000
G92 E0
G1 Z13.100 F4800.000
G1 X17.127 Y50.976 F4800.000
G1 Z8.100 F4800.000
G1  F4800.00000
G1 X17.204 Y51.340  F120.000
G1 X17.127 Y51.704 
G1 X16.908 Y52.005 
G1 X16.586 Y52.190 
G1 X16.217 Y52.229 
G1 X15.863 Y52.114 
G1 X15.587 Y51.866 
G1 X15.435 Y51.526 
G1 X15.435 Y51.154 
G1 X15.587 Y50.814 
G1 X15.863 Y50.566 
G1 X15.990 Y50.524 
G1 X16.217 Y50.451  F120.000
G1 X16.586 Y50.490 
G1 X16.908 Y50.675 
G1 X17.100 Y50.940 
G1  F4800.00000
G92 E0
G1 Z13.100 F4800.000
G1 X15.671 Y51.476 F4800.000
G1 Z8.100 F4800.000
G1  F4800.00000
G1 X15.671 Y51.204  F120.000
G1 X15.781 Y50.956 
G1 X15.983 Y50.774 
G1 X16.242 Y50.690 
G1 X16.512 Y50.719 
G1 X16.747 Y50.854 
G1 X16.907 Y51.074 
G1 X16.963 Y51.340 
G1 X16.907 Y51.606 
G1 X16.747 Y51.826 
G1 X16.512 Y51.961 
G1 X16.242 Y51.990 
G1 X15.983 Y51.906 
G1 X15.781 Y51.724 
G1 X15.689 Y51.517 
G1 X15.419 Y51.374 F4800.000
G1 X15.755 Y52.335 F4800.000
G1 X14.851 Y52.335  F120.000
G1 X14.851 Y50.406 
G1 X15.688 Y50.406 
G1 X15.392 Y50.673 
G1 X15.200 Y51.104 
G1 X15.200 Y51.576 
G1 X15.392 Y52.007 
G1 X15.722 Y52.304 
G1  F4800.00000
G92 E0
G1 Z13.100 F4800.000
G1 X16.990 Y52.230 F4800.000
G1 Z8.100 F4800.000
G1  F4800.00000
G1 X17.069 Y52.184  F120.000
G1 X17.347 Y51.802 
G1 X17.445 Y51.340 
G1 X17.347 Y50.878 
G1 X17.005 Y50.407 
G1 X28.966 Y50.416 
G1 X28.966 Y52.335 
G1 X17.018 Y52.335 
G1 X17.001 Y52.273 
G1  F4800.00000
G92 E0
G1 Z13.100 F4800.000
G1 X14.615 Y52.570 F4800.000
G1 Z8.100 F4800.000
G1  F4800.00000
G1 X14.615 Y50.170  F120.000
G1 X29.202 Y50.180 
G1 X29.202 Y52.570 
G1 X14.660 Y52.570 
G1 X14.379 Y52.674 F4800.000
G1 X14.379 Y50.066  F120.000
G1 X14.407 Y50.004 
G1 X14.458 Y49.958 
G1 X14.531 Y49.934 
G1 X29.302 Y49.945 
G1 X29.384 Y49.983 
G1 X29.420 Y50.033 
G1 X29.437 Y50.116 
G1 X29.437 Y52.624 
G1 X29.420 Y52.707 
G1 X29.380 Y52.762 
G1 X29.321 Y52.796 
G1 X14.531 Y52.806 
G1 X14.458 Y52.782 
G1 X14.398 Y52.715 
G1 X14.602 Y52.473 F4800.000
G1 X15.153 Y52.217 F4800.000
G1 X15.040 Y51.682  F120.000
G1 X15.025 Y51.685 F4800.000
G1 X15.025 Y50.995  F120.000
G1 X15.040 Y50.998 F4800.000
G1 X15.141 Y50.524  F120.000
G1 X15.832 Y50.444 F4800.000
G1 X16.014 Y50.339  F120.000
G1 X16.197 Y50.310 
G1 X16.628 Y50.332 
G1 X16.737 Y50.360 
G1 X16.963 Y50.563 
G1  F4800.00000
G92 E0
G1 Z13.100 F4800.000
G1 X17.289 Y52.070 F4800.000
G1 Z8.100 F4800.000
G1  F4800.00000
G1 X17.423 Y52.204  F120.000
G1 X17.763 Y52.204 
G1 X17.432 Y51.873 
G1 X17.511 Y51.612 
G1 X18.103 Y52.204 
G1 X18.444 Y52.204 
G1 X17.571 Y51.331 
G1 X17.501 Y50.921 
G1 X18.784 Y52.204 
G1 X19.124 Y52.204 
G1 X17.458 Y50.538 
G1 X17.798 Y50.538 
G1 X19.465 Y52.204 
G1 X19.805 Y52.204 
G1 X18.139 Y50.538 
G1 X18.480 Y50.539 
G1 X20.145 Y52.204 
G1 X20.486 Y52.204 
G1 X18.820 Y50.539 
G1 X19.161 Y50.539 
G1 X20.826 Y52.204 
G1 X21.166 Y52.204 
G1 X19.501 Y50.539 
G1 X19.842 Y50.539 
G1 X21.507 Y52.204 
G1 X21.847 Y52.204 
G1 X20.182 Y50.540 
G1 X20.523 Y50.540 
G1 X22.187 Y52.204 
G1 X22.527 Y52.204 
G1 X20.863 Y50.540 
G1 X21.204 Y50.540 
G1 X22.868 Y52.204 
G1 X23.208 Y52.204 
G1 X21.544 Y50.541 
G1 X21.885 Y50.541 
G1 X23.548 Y52.204 
G1 X23.889 Y52.204 
G1 X22.226 Y50.541 
G1 X22.566 Y50.541 
G1 X24.229 Y52.204 
G1 X24.569 Y52.204 
G1 X22.907 Y50.542 
G1 X23.247 Y50.542 
G1 X24.910 Y52.204 
G1 X25.250 Y52.204 
G1 X23.588 Y50.542 
G1 X23.928 Y50.542 
G1 X25.590 Y52.204 
G1 X25.931 Y52.204 
G1 X24.269 Y50.543 
G1 X24.609 Y50.543 
G1 X26.271 Y52.204 
G1 X26.611 Y52.204 
G1 X24.950 Y50.543 
G1 X25.291 Y50.543 
G1 X26.952 Y52.204 
G1 X27.292 Y52.204 
G1 X25.631 Y50.544 
G1 X25.972 Y50.544 
G1 X27.632 Y52.204 
G1 X27.972 Y52.204 
G1 X26.312 Y50.544 
G1 X26.653 Y50.544 
G1 X28.313 Y52.204 
G1 X28.653 Y52.204 
G1 X26.993 Y50.544 
G1 X27.334 Y50.545 
G1 X28.836 Y52.047 
G1 X28.836 Y51.707 
G1 X27.674 Y50.545 
G1 X28.015 Y50.545 
G1 X28.836 Y51.366 
G1 X28.836 Y51.026 
G1 X28.355 Y50.545 
G1 X28.696 Y50.546 
G1 X28.836 Y50.686 
G1  F4800.00000
G92 E0
G1 Z13.100 F4800.000
G1 X16.890 Y52.313 F4800.000
G1 Z8.100 F4800.000
G1  F4800.00000
G1 X16.631 Y52.378  F120.000
G1 X16.188 Y52.399 
G1 X16.089 Y52.384 
G1 X15.832 Y52.236 
G1  F4800.00000
G92 E0
G1 Z13.100 F4800.000
G1 X20.139 Y45.129 F4800.000
G1 Z8.100 F4800.000
G1  F4800.00000
G1 X20.091 Y45.020  F120.000
G1 X20.139 Y44.911 
G1 X20.251 Y44.935 
G1 X20.251 Y45.105  F120.000
G1 X20.183 Y45.119 
G1 X20.160 Y45.012 F4800.000
G1 X20.154 Y44.761 F4800.000
G1 X20.541 Y44.416  F120.000
G1 X20.817 Y44.326 
G1 X21.106 Y44.356 
G1 X21.357 Y44.501 
G1 X21.505 Y44.702 
G1 X21.538 Y44.776 
G1 X21.588 Y45.020 
G1 X21.538 Y45.264 
G1 X21.505 Y45.338 
G1 X21.357 Y45.539 
G1 X21.106 Y45.684 
G1 X20.817 Y45.714 
G1 X20.541 Y45.624 
G1 X20.154 Y45.279 
G1 X19.926 Y45.020 F4800.000
G1 X16.060 Y45.020  F120.000
G1  F4800.00000
G92 E0
G1 Z13.100 F4800.000
G1 X17.614 Y37.659 F4800.000
G1 Z8.100 F4800.000
G1  F4800.00000
G1 X18.001 Y38.004  F120.000
G1 X18.277 Y38.094 
G1 X18.566 Y38.064 
G1 X19.016 Y37.806 
G1  F4800.00000
G92 E0
G1 Z13.100 F4800.000
G1 X20.292 Y37.629 F4800.000
G1 Z8.100 F4800.000
G1  F4800.00000
G1 X19.086 Y37.629  F120.000
G1 X19.062 Y37.662 
G1 X18.957 Y37.616 
G1 X19.003 Y37.400 
G1 X18.957 Y37.184 
G1 X19.062 Y37.138 
G1 X19.086 Y37.171 
G1 X20.292 Y37.171 
G1 X20.251 Y37.264 
G1 X20.251 Y37.536 
G1 X20.274 Y37.588 
G1 X20.014 Y37.517 F4800.000
G1  F4800.00000
G92 E0
G1 Z13.100 F4800.000
G1 X19.016 Y36.994 F4800.000
G1 Z8.100 F4800.000
G1  F4800.00000
G1 X18.566 Y36.736  F120.000
G1 X18.352 Y36.673 
G1 X18.352 Y36.535 
G1 X18.352 Y35.587 
G1 X18.566 Y35.524 
G1 X19.016 Y35.266 
G1 X18.646 Y35.705 F4800.000
G1 X18.001 Y35.464  F120.000
G1 X17.785 Y35.270 
G1 X17.682 Y35.044 
G1 X17.665 Y34.964 
G1 X17.667 Y34.715 
G1 X17.767 Y34.487 
G1 X17.815 Y34.421 
G1 X18.001 Y34.256 
G1 X18.646 Y34.015 
G1 X19.016 Y34.454 F4800.000
G1 X18.566 Y34.196  F120.000
G1 X18.352 Y34.133 
G1 X18.352 Y33.246 
G1  F4800.00000
G92 E0
G1 Z13.100 F4800.000
G1 X17.765 Y32.196 F4800.000
G1 Z8.100 F4800.000
G1  F4800.00000
G1 X17.765 Y32.444  F120.000
G1 X17.866 Y32.671 
G1 X18.051 Y32.838 
G1 X18.288 Y32.915 
G1 X18.535 Y32.889 
G1 X18.750 Y32.764 
G1 X18.896 Y32.563 
G1 X18.948 Y32.320 
G1 X18.896 Y32.077 
G1 X18.750 Y31.876 
G1 X18.463 Y31.710 
G1 X18.499 Y31.601 
G1 X18.581 Y31.610 
G1 X18.850 Y31.765 
G1 X19.032 Y32.016 
G1 X19.097 Y32.320 
G1 X19.032 Y32.624 
G1 X18.850 Y32.875 
G1 X18.581 Y33.030 
G1 X18.390 Y33.050 
G1 X18.390 Y33.101 
G1 X17.977 Y32.967 
G1 X17.746 Y32.759 
G1 X17.620 Y32.475 
G1 X17.620 Y32.165 
G1 X17.746 Y31.881 
G1 X17.977 Y31.673 
G1 X18.303 Y31.567 
G1 X18.303 Y31.720 
G1 X18.051 Y31.802 
G1 X17.866 Y31.969 
G1 X17.784 Y32.155 
G1 X17.535 Y32.289 F4800.000
G1  F4800.00000
G92 E0
G1 Z13.100 F4800.000
G1 X19.086 Y34.631 F4800.000
G1 Z8.100 F4800.000
G1  F4800.00000
G1 X20.292 Y34.631  F120.000
G1 X20.251 Y34.724 
G1 X20.251 Y34.996 
G1 X20.292 Y35.089 
G1 X19.086 Y35.089 
G1 X19.062 Y35.122 
G1 X18.957 Y35.076 
G1 X19.003 Y34.860 
G1 X18.957 Y34.644 
G1 X19.059 Y34.599 
G1 X19.245 Y34.886 F4800.000
G1  F4800.00000
G92 E0
G1 Z13.100 F4800.000
G1 X20.288 Y34.481 F4800.000
G1 Z8.100 F4800.000
G1  F4800.00000
G1 X20.509 Y34.282  F120.000
G1 X20.579 Y34.241 
G1 X20.817 Y34.166 
G1 X21.106 Y34.196 
G1 X21.357 Y34.341 
G1 X21.505 Y34.542 
G1 X21.538 Y34.616 
G1 X21.588 Y34.860 
G1 X21.538 Y35.104 
G1 X21.505 Y35.178 
G1 X21.357 Y35.379 
G1 X21.106 Y35.524 
G1 X20.817 Y35.554 
G1 X20.580 Y35.479 
G1 X20.509 Y35.438 
G1 X20.288 Y35.239 
G1  F4800.00000
G92 E0
G1 Z13.100 F4800.000
G1 X20.288 Y37.021 F4800.000
G1 Z8.100 F4800.000
G1  F4800.00000
G1 X20.509 Y36.822  F120.000
G1 X20.579 Y36.781 
G1 X20.817 Y36.706 
G1 X21.106 Y36.736 
G1 X21.357 Y36.881 
G1 X21.505 Y37.082 
G1 X21.538 Y37.156 
G1 X21.588 Y37.400 
G1 X21.538 Y37.644 
G1 X21.505 Y37.718 
G1 X21.357 Y37.919 
G1 X21.106 Y38.064 
G1 X20.817 Y38.094 
G1 X20.580 Y38.019 
G1 X20.509 Y37.978 
G1 X20.288 Y37.779 
G1  F4800.00000
G92 E0
G1 Z13.100 F4800.000
G1 X18.646 Y36.555 F4800.000
G1 Z8.100 F4800.000
G1  F4800.00000
G1 X18.001 Y36.796  F120.000
G1 X17.614 Y37.141 
G1 X17.711 Y37.315 F4800.000
G1 X17.711 Y37.485  F120.000
G1 X17.599 Y37.509 
G1 X17.551 Y37.400 
G1 X17.599 Y37.291 
G1 X17.667 Y37.306 
G1 X17.616 Y37.456 F4800.000
G1 X17.386 Y37.400 F4800.000
G1 X16.060 Y37.400  F120.000
G1 X15.910 Y37.349 F4800.000
G1 X15.910 Y45.071  F120.000
G1 X15.800 Y45.116 
G1 X15.762 Y45.104 
G1 X15.715 Y45.040 
G1 X15.715 Y37.380 
G1 X15.762 Y37.316 
G1 X15.840 Y37.308 
G1 X15.871 Y37.326  F120.000
G1 X15.717 Y37.578 F4800.000
G1  F4800.00000
G92 E0
G1 Z13.100 F4800.000
G1 X19.124 Y37.400 F4800.000
G1 Z8.100 F4800.000
G1  F4800.00000
G1 X20.133 Y37.400  F120.000
G1  F4800.00000
G92 E0
G1 Z13.100 F4800.000
G1 X20.133 Y34.860 F4800.000
G1 Z8.100 F4800.000
G1  F4800.00000
G1 X19.124 Y34.860  F120.000
G1  F4800.00000
G92 E0
G1 Z13.100 F4800.000
G1 X20.305 Y32.196 F4800.000
G1 Z8.100 F4800.000
G1  F4800.00000
G1 X20.406 Y31.969  F120.000
G1 X20.591 Y31.802 
G1 X20.843 Y31.720 
G1 X20.843 Y31.617 
G1 X21.290 Y31.876 
G1 X21.436 Y32.077 
G1 X21.488 Y32.320 
G1 X21.436 Y32.563 
G1 X21.290 Y32.764 
G1 X21.075 Y32.889 
G1 X20.828 Y32.915 
G1 X20.591 Y32.838 
G1 X20.406 Y32.671 
G1 X20.305 Y32.444 
G1 X20.305 Y32.241 
G1 X20.132 Y32.017 F4800.000
G1  F4800.00000
G92 E0
G1 Z13.100 F4800.000
G1 X23.741 Y42.785 F4800.000
G1 Z8.100 F4800.000
G1  F4800.00000
G1 X24.396 Y42.785  F120.000
G1 X24.396 Y47.255 
G1 X23.741 Y47.255 
G1 X23.741 Y42.830 
G1 X23.505 Y42.550 F4800.000
G1 X24.632 Y42.550  F120.000
G1 X24.632 Y47.490 
G1 X23.505 Y47.490 
G1 X23.505 Y42.595 
G1  F4800.00000
G92 E0
G1 Z13.100 F4800.000
G1 X23.269 Y47.461 F4800.000
G1 Z8.100 F4800.000
G1  F4800.00000
G1 X23.269 Y42.446  F120.000
G1 X23.297 Y42.384 
G1 X23.348 Y42.338 
G1 X23.421 Y42.314 
G1 X24.659 Y42.314 
G1 X24.751 Y42.324 
G1 X24.810 Y42.358 
G1 X24.850 Y42.413 
G1 X24.867 Y42.496 
G1 X24.867 Y47.461 
G1 X29.171 Y47.461 
G1 X29.171 Y35.457 
G1 X29.189 Y35.419 
G1 X29.267 Y35.375 
G1 X34.608 Y35.366 
G1 X34.608 Y35.624 
G1 X32.927 Y35.624 
G1 X32.927 Y35.580 
G1 X29.374 Y35.580 
G1 X29.374 Y47.544 
G1 X29.325 Y47.652 
G1 X24.850 Y47.659 
G1 X24.751 Y47.716 
G1 X24.659 Y47.726 
G1 X23.421 Y47.726 
G1 X23.348 Y47.702 
G1 X23.300 Y47.659 
G1 X14.538 Y47.659 
G1 X14.492 Y47.644 
G1 X14.445 Y47.580 
G1 X14.445 Y29.995 
G1 X14.356 Y29.914 
G1 X14.317 Y29.827 
G1 X14.317 Y29.733 
G1 X14.356 Y29.646 
G1 X14.426 Y29.583 
G1 X14.524 Y29.551 
G1 X20.960 Y29.563 
G1 X21.042 Y29.611 
G1 X21.098 Y29.687 
G1 X21.121 Y29.796 
G1 X21.121 Y31.610 
G1 X21.390 Y31.765 
G1 X21.572 Y32.016 
G1 X21.637 Y32.320 
G1 X21.572 Y32.624 
G1 X21.390 Y32.875 
G1 X21.121 Y33.030 
G1 X20.812 Y33.063 
G1 X20.517 Y32.967 
G1 X20.286 Y32.759 
G1 X20.160 Y32.475 
G1 X20.160 Y32.165 
G1 X20.286 Y31.881 
G1 X20.517 Y31.673 
G1 X20.667 Y31.625 
G1 X20.667 Y30.009 
G1 X14.640 Y30.009 
G1 X14.640 Y47.461 
G1 X23.224 Y47.461 
G1 X23.569 Y47.461 F4800.000
G1 X23.871 Y46.984 F4800.000
G1 X24.011 Y47.124  F120.000
G1 X24.266 Y47.019 
G1 X23.871 Y46.624 
G1 X23.871 Y46.264 
G1 X24.266 Y46.659 
G1 X24.266 Y46.298 
G1 X23.871 Y45.903 
G1 X23.871 Y45.543 
G1 X24.266 Y45.938 
G1 X24.266 Y45.578 
G1 X23.871 Y45.183 
G1 X23.871 Y44.822 
G1 X24.266 Y45.218 
G1 X24.266 Y44.857 
G1 X23.871 Y44.462 
G1 X23.871 Y44.102 
G1 X24.266 Y44.497 
G1 X24.266 Y44.137 
G1 X23.871 Y43.742 
G1 X23.871 Y43.381 
G1 X24.266 Y43.776 
G1 X24.266 Y43.416 
G1 X23.871 Y43.021 
G1 X24.126 Y42.916 
G1 X24.266 Y43.056 
G1  F4800.00000
G92 E0
G1 Z13.100 F4800.000
G1 X20.894 Y31.511 F4800.000
G1 Z8.100 F4800.000
G1  F4800.00000
G1 X20.894 Y29.891  F120.000
G1 X20.875 Y29.806 
G1 X20.785 Y29.786 
G1 X14.560 Y29.780 
G1 X14.435 Y29.800 
G1  F4800.00000
G92 E0
G1 Z13.100 F4800.000
G1 X28.415 Y29.125 F4800.000
G1 Z8.100 F4800.000
G1  F4800.00000
G1 X28.450 Y29.046  F120.000
G1 X32.927 Y29.046 
G1 X32.927 Y29.016 
G1 X34.608 Y29.016 
G1 X34.608 Y29.274 
G1 X32.927 Y29.274 
G1 X32.927 Y29.244 
G1 X28.508 Y29.244 
G1 X28.462 Y29.229 
G1 X28.417 Y29.169 
G1 X28.495 Y29.093 F4800.000
G1  F4800.00000
G92 E0
G1 Z13.100 F4800.000
G1 X32.945 Y25.304 F4800.000
G1 Z8.100 F4800.000
G1  F4800.00000
G1 X33.276 Y25.356  F120.000
G1 X33.391 Y25.355 
G1 X33.517 Y25.394 
G1 X33.806 Y25.364 
G1 X34.057 Y25.219 
G1 X34.205 Y25.018 
G1 X34.238 Y24.944 
G1 X34.288 Y24.700 
G1 X34.238 Y24.456 
G1 X34.205 Y24.382 
G1 X34.057 Y24.181 
G1 X33.806 Y24.036 
G1 X33.517 Y24.006 
G1 X33.391 Y24.045 
G1 X33.276 Y24.044 
G1 X32.945 Y24.096 
G1  F4800.00000
G92 E0
G1 Z13.100 F4800.000
G1 X28.624 Y27.763 F4800.000
G1 Z8.100 F4800.000
G1  F4800.00000
G1 X33.695 Y27.763  F120.000
G1 X33.800 Y27.774 
G1 X33.839 Y27.796 
G1 X33.896 Y27.875 
G1 X33.839 Y27.954 
G1 X33.800 Y27.976 
G1 X33.695 Y27.987 
G1 X28.519 Y27.987 
G1 X28.457 Y27.967 
G1 X28.407 Y27.897 
G1 X28.407 Y24.812 
G1 X26.841 Y24.812 
G1 X26.864 Y24.700 
G1 X26.841 Y24.588 
G1 X32.715 Y24.588 
G1 X32.715 Y24.812 
G1 X28.624 Y24.812 
G1 X28.624 Y27.718 
G1 X28.860 Y27.528 F4800.000
G1 X33.708 Y27.528  F120.000
G1 X33.875 Y27.545 
G1 X34.000 Y27.617 
G1 X34.093 Y27.746 
G1 X34.608 Y27.746 
G1 X34.608 Y28.004 
G1 X34.093 Y28.004 
G1 X34.000 Y28.133 
G1 X33.875 Y28.205 
G1 X33.708 Y28.222 
G1 X28.481 Y28.222 
G1 X28.337 Y28.175 
G1 X28.230 Y28.079 
G1 X28.171 Y27.947 
G1 X28.171 Y25.047 
G1 X26.550 Y25.047 
G1 X26.623 Y24.700 
G1 X26.550 Y24.353 
G1 X33.045 Y24.353 
G1 X32.951 Y24.564 
G1 X32.951 Y24.836 
G1 X33.045 Y25.047 
G1 X28.860 Y25.047 
G1 X28.860 Y27.483 
G1 X28.860 Y27.828 F4800.000
G1  F4800.00000
G92 E0
G1 Z13.100 F4800.000
G1 X26.655 Y24.145 F4800.000
G1 Z8.100 F4800.000
G1  F4800.00000
G1 X26.364 Y24.067  F120.000
G1 X25.938 Y24.008 
G1 X25.659 Y24.081 
G1 X25.589 Y24.122 
G1 X25.405 Y24.290 
G1 X25.302 Y24.516 
G1 X25.285 Y24.596 
G1 X25.287 Y24.845 
G1 X25.387 Y25.074 
G1 X25.435 Y25.139 
G1 X25.621 Y25.304 
G1 X25.897 Y25.394 
G1 X26.364 Y25.333 
G1 X26.655 Y25.255 
G1  F4800.00000
G92 E0
G1 Z13.100 F4800.000
G1 X38.394 Y27.746 F4800.000
G1 Z8.100 F4800.000
G1  F4800.00000
G1 X38.394 Y15.789  F120.000
G1 X38.411 Y15.751 
G1 X38.511 Y15.710 
G1 X51.423 Y15.722 
G1 X51.467 Y15.810 
G1 X51.415 Y15.909 
G1 X38.596 Y15.909 
G1 X38.596 Y27.746 
G1 X39.333 Y27.746 
G1 X39.333 Y28.004 
G1 X37.652 Y28.004 
G1 X37.652 Y27.746 
G1 X38.349 Y27.746 
G1 X38.694 Y27.746 F4800.000
G1  F4800.00000
G92 E0
G1 Z13.100 F4800.000
G1 X51.372 Y16.059 F4800.000
G1 Z8.100 F4800.000
G1  F4800.00000
G1 X51.372 Y17.623  F120.000
G1 X51.021 Y17.746 
G1 X50.805 Y17.940 
G1 X50.687 Y18.205 
G1 X50.687 Y18.495 
G1 X50.805 Y18.760 
G1 X51.021 Y18.954 
G1 X51.297 Y19.044 
G1 X51.586 Y19.014 
G1 X51.837 Y18.869 
G1 X52.007 Y18.634 
G1 X52.068 Y18.350 
G1 X52.007 Y18.066 
G1 X51.863 Y17.863 
G1 X51.802 Y17.809 
G1 X51.586 Y17.686 
G1 X51.069 Y17.522 
G1  F4800.00000
G92 E0
G1 Z13.100 F4800.000
G1 X17.887 Y16.702 F4800.000
G1 Z8.100 F4800.000
G1  F4800.00000
G1 X17.610 Y17.084  F120.000
G1 X17.201 Y17.320 
G1 X16.731 Y17.369 
G1 X16.282 Y17.223 
G1 X15.932 Y16.907 
G1 X15.740 Y16.476 
G1 X15.740 Y16.004 
G1 X15.932 Y15.573 
G1 X16.282 Y15.257 
G1 X16.457 Y15.200 
G1 X16.731 Y15.111  F120.000
G1 X17.201 Y15.160 
G1 X17.610 Y15.396 
G1 X17.887 Y15.778 
G1 X17.985 Y16.240 
G1 X17.896 Y16.658 
G1 X17.667 Y16.604 F4800.000
G1 X17.448 Y16.905  F120.000
G1 X17.126 Y17.090 
G1 X16.757 Y17.129 
G1 X16.403 Y17.014 
G1 X16.127 Y16.766 
G1 X15.975 Y16.426 
G1 X15.975 Y16.054 
G1 X16.127 Y15.714 
G1 X16.403 Y15.466 
G1 X16.530 Y15.424 
G1 X16.757 Y15.351  F120.000
G1 X17.126 Y15.390 
G1 X17.448 Y15.575 
G1 X17.667 Y15.876 
G1 X17.744 Y16.240 
G1 X17.676 Y16.560 
G1  F4800.00000
G92 E0
G1 Z13.100 F4800.000
G1 X16.211 Y16.376 F4800.000
G1 Z8.100 F4800.000
G1  F4800.00000
G1 X16.211 Y16.104  F120.000
G1 X16.321 Y15.856 
G1 X16.523 Y15.674 
G1 X16.782 Y15.590 
G1 X17.052 Y15.619 
G1 X17.287 Y15.754 
G1 X17.447 Y15.974 
G1 X17.503 Y16.240 
G1 X17.447 Y16.506 
G1 X17.287 Y16.726 
G1 X17.052 Y16.861 
G1 X16.782 Y16.890 
G1 X16.523 Y16.806 
G1 X16.321 Y16.624 
G1 X16.229 Y16.417 
G1 X15.959 Y16.274 F4800.000
G1  F4800.00000
G92 E0
G1 Z13.100 F4800.000
G1 X15.506 Y24.395 F4800.000
G1 Z8.100 F4800.000
G1  F4800.00000
G1 X15.506 Y26.935  F120.000
G1 X14.851 Y26.935 
G1 X14.851 Y14.846 
G1 X34.556 Y14.856 
G1 X34.556 Y21.855 
G1 X23.126 Y21.855 
G1 X23.126 Y24.395 
G1 X15.551 Y24.395 
G1 X15.742 Y24.630 F4800.000
G1 X15.742 Y27.170  F120.000
G1 X14.615 Y27.170 
G1 X14.615 Y14.610 
G1 X34.792 Y14.620 
G1 X34.792 Y22.090 
G1 X23.362 Y22.090 
G1 X23.362 Y24.630 
G1 X15.787 Y24.630 
G1 X15.977 Y24.866 F4800.000
G1 X15.977 Y27.224  F120.000
G1 X15.960 Y27.307 
G1 X15.920 Y27.362 
G1 X15.861 Y27.396 
G1 X15.769 Y27.406 
G1 X14.531 Y27.406 
G1 X14.458 Y27.382 
G1 X14.407 Y27.336 
G1 X14.379 Y27.274 
G1 X14.379 Y14.506 
G1 X14.407 Y14.444 
G1 X14.458 Y14.398 
G1 X14.531 Y14.374 
G1 X34.892 Y14.385 
G1 X34.974 Y14.423 
G1 X35.010 Y14.473 
G1 X35.027 Y14.556 
G1 X35.027 Y22.144 
G1 X35.010 Y22.227 
G1 X34.970 Y22.282 
G1 X34.911 Y22.316 
G1 X23.597 Y22.326 
G1 X23.597 Y24.684 
G1 X23.580 Y24.767 
G1 X23.540 Y24.822 
G1 X23.481 Y24.856 
G1 X16.022 Y24.866 
G1 X15.677 Y24.866 F4800.000
G1 X15.612 Y24.264 F4800.000
G1 X14.981 Y23.633  F120.000
G1 X14.981 Y23.297 
G1 X15.949 Y24.264 
G1 X16.285 Y24.264 
G1 X14.981 Y22.960 
G1 X14.981 Y22.623 
G1 X16.622 Y24.264 
G1 X16.959 Y24.264 
G1 X14.981 Y22.286 
G1 X14.981 Y21.949 
G1 X17.296 Y24.264 
G1 X17.633 Y24.264 
G1 X14.981 Y21.613 
G1 X14.981 Y21.276 
G1 X17.969 Y24.264 
G1 X18.306 Y24.264 
G1 X14.981 Y20.939 
G1 X14.981 Y20.602 
G1 X18.643 Y24.264 
G1 X18.980 Y24.264 
G1 X14.981 Y20.266 
G1 X14.981 Y19.929 
G1 X19.316 Y24.264 
G1 X19.653 Y24.264 
G1 X14.981 Y19.592 
G1 X14.981 Y19.255 
G1 X19.990 Y24.264 
G1 X20.327 Y24.264 
G1 X14.981 Y18.918 
G1 X14.981 Y18.582 
G1 X20.664 Y24.264 
G1 X21.000 Y24.264 
G1 X14.981 Y18.245 
G1 X14.981 Y17.908 
G1 X21.337 Y24.264 
G1 X21.674 Y24.264 
G1 X14.981 Y17.571 
G1 X14.981 Y17.235 
G1 X22.011 Y24.264 
G1 X22.347 Y24.264 
G1 X14.981 Y16.898 
G1 X14.981 Y16.561 
G1 X22.684 Y24.264 
G1 X22.996 Y24.239 
G1 X14.981 Y16.224 
G1 X15.609 Y16.516 F4800.000
G1 X14.981 Y15.887  F120.000
G1 X14.981 Y15.551 
G1 X15.609 Y16.179 
G1 X15.663 Y15.896 
G1 X14.981 Y15.214 
G1 X15.080 Y14.976 
G1 X15.767 Y15.663 
G1 X15.897 Y15.456 
G1 X15.417 Y14.976 
G1 X15.754 Y14.976 
G1 X16.074 Y15.297 
G1  F4800.00000
G92 E0
G1 Z13.100 F4800.000
G1 X17.715 Y15.254 F4800.000
G1 Z8.100 F4800.000
G1  F4800.00000
G1 X24.186 Y21.724  F120.000
G1 X24.522 Y21.724 
G1 X17.776 Y14.978 
G1 X18.112 Y14.978 
G1 X24.859 Y21.724 
G1 X25.196 Y21.724 
G1 X18.449 Y14.978 
G1 X18.786 Y14.978 
G1 X25.533 Y21.724 
G1 X25.869 Y21.724 
G1 X19.123 Y14.978 
G1 X19.460 Y14.978 
G1 X26.206 Y21.724 
G1 X26.543 Y21.724 
G1 X19.797 Y14.978 
G1 X20.134 Y14.979 
G1 X26.880 Y21.724 
G1 X27.217 Y21.724 
G1 X20.471 Y14.979 
G1 X20.808 Y14.979 
G1 X27.553 Y21.724 
G1 X27.890 Y21.724 
G1 X21.145 Y14.979 
G1 X21.482 Y14.979 
G1 X28.227 Y21.724 
G1 X28.564 Y21.724 
G1 X21.819 Y14.979 
G1 X22.156 Y14.980 
G1 X28.900 Y21.724 
G1 X29.237 Y21.724 
G1 X22.493 Y14.980 
G1 X22.830 Y14.980 
G1 X29.574 Y21.724 
G1 X29.911 Y21.724 
G1 X23.167 Y14.980 
G1 X23.504 Y14.980 
G1 X30.248 Y21.724 
G1 X30.584 Y21.724 
G1 X23.841 Y14.981 
G1 X24.178 Y14.981 
G1 X30.921 Y21.724 
G1 X31.258 Y21.724 
G1 X24.514 Y14.981 
G1 X24.851 Y14.981 
G1 X31.595 Y21.724 
G1 X31.931 Y21.724 
G1 X25.188 Y14.981 
G1 X25.525 Y14.981 
G1 X32.268 Y21.724 
G1 X32.605 Y21.724 
G1 X25.862 Y14.982 
G1 X26.199 Y14.982 
G1 X32.942 Y21.724 
G1 X33.279 Y21.724 
G1 X26.536 Y14.982 
G1 X26.873 Y14.982 
G1 X33.615 Y21.724 
G1 X33.952 Y21.724 
G1 X27.210 Y14.982 
G1 X27.547 Y14.982 
G1 X34.289 Y21.724 
G1 X34.426 Y21.525 
G1 X27.884 Y14.983 
G1 X28.221 Y14.983 
G1 X34.426 Y21.188 
G1 X34.426 Y20.851 
G1 X28.558 Y14.983 
G1 X28.895 Y14.983 
G1 X34.426 Y20.514 
G1 X34.426 Y20.177 
G1 X29.232 Y14.983 
G1 X29.569 Y14.983 
G1 X34.426 Y19.841 
G1 X34.426 Y19.504 
G1 X29.906 Y14.984 
G1 X30.243 Y14.984 
G1 X34.426 Y19.167 
G1 X34.426 Y18.830 
G1 X30.580 Y14.984 
G1 X30.917 Y14.984 
G1 X34.426 Y18.494 
G1 X34.426 Y18.157 
G1 X31.253 Y14.984 
G1 X31.590 Y14.984 
G1 X34.426 Y17.820 
G1 X34.426 Y17.483 
G1 X31.927 Y14.985 
G1 X32.264 Y14.985 
G1 X34.426 Y17.146 
G1 X34.426 Y16.810 
G1 X32.601 Y14.985 
G1 X32.938 Y14.985 
G1 X34.426 Y16.473 
G1 X34.426 Y16.136 
G1 X33.275 Y14.985 
G1 X33.612 Y14.985 
G1 X34.426 Y15.799 
G1 X34.426 Y15.463 
G1 X33.949 Y14.986 
G1 X34.286 Y14.986 
G1 X34.426 Y15.126 
G1  F4800.00000
G92 E0
G1 Z13.100 F4800.000
G1 X23.175 Y21.724 F4800.000
G1 Z8.100 F4800.000
G1  F4800.00000
G1 X18.036 Y16.585  F120.000
G1 X18.095 Y16.307 
G1 X23.512 Y21.724 
G1 X23.849 Y21.724 
G1 X18.067 Y15.942 
G1  F4800.00000
G92 E0
G1 Z13.100 F4800.000
G1 X16.564 Y17.470 F4800.000
G1 Z8.100 F4800.000
G1  F4800.00000
G1 X22.996 Y23.902  F120.000
G1 X22.996 Y23.566 
G1 X16.907 Y17.476 
G1 X17.210 Y17.443 
G1 X22.996 Y23.229 
G1 X22.996 Y22.892 
G1 X17.424 Y17.320 
G1 X17.637 Y17.197 
G1 X22.996 Y22.555 
G1 X22.996 Y22.219 
G1 X17.794 Y17.017 
G1 X17.936 Y16.822 
G1 X22.996 Y21.882 
G1  F4800.00000
G92 E0
G1 Z13.100 F4800.000
G1 X15.376 Y24.365 F4800.000
G1 Z8.100 F4800.000
G1  F4800.00000
G1 X14.981 Y23.970  F120.000
G1 X14.981 Y24.307 
G1 X15.376 Y24.702 
G1 X15.376 Y25.039 
G1 X14.981 Y24.644 
G1 X14.981 Y24.980 
G1 X15.376 Y25.376 
G1 X15.376 Y25.712 
G1 X14.981 Y25.317 
G1 X14.981 Y25.654 
G1 X15.376 Y26.049 
G1 X15.376 Y26.386 
G1 X14.981 Y25.991 
G1 X14.981 Y26.328 
G1 X15.376 Y26.723 
G1 X15.121 Y26.804 
G1 X14.981 Y26.664 
G1  F4800.00000
G92 E0
G1 Z13.100 F4800.000
G1 X16.252 Y15.135 F4800.000
G1 Z8.100 F4800.000
G1  F4800.00000
G1 X16.453 Y15.020  F120.000
G1 X16.720 Y14.978 
G1 X17.242 Y15.005 
G1 X17.619 Y15.105 
G1  F4800.00000
G92 E0
G1 Z13.100 F4800.000
G1 X41.342 Y23.125 F4800.000
G1 Z8.100 F4800.000
G1  F4800.00000
G1 X41.342 Y20.949  F120.000
G1 X41.521 Y20.788 
G1 X41.521 Y18.655 
G1 X47.751 Y18.655 
G1 X47.912 Y19.017 
G1 X48.262 Y19.333 
G1 X48.709 Y19.478 
G1 X48.709 Y22.302 
G1 X48.262 Y22.447 
G1 X47.912 Y22.763 
G1 X47.751 Y23.125 
G1 X41.387 Y23.125 
G1 X41.324 Y23.360 F4800.000
G1 X41.324 Y25.103  F120.000
G1 X41.107 Y25.080 
G1 X41.107 Y20.868 
G1 X41.124 Y20.828 
G1 X41.285 Y20.683 
G1 X41.285 Y18.420 
G1 X47.955 Y18.420 
G1 X47.955 Y18.536 
G1 X48.107 Y18.876 
G1 X48.383 Y19.124 
G1 X48.736 Y19.239 
G1 X48.944 Y19.217 
G1 X48.944 Y22.563 
G1 X48.736 Y22.541 
G1 X48.383 Y22.656 
G1 X48.107 Y22.904 
G1 X47.955 Y23.244 
G1 X47.955 Y23.360 
G1 X41.369 Y23.360 
G1 X41.560 Y23.596 F4800.000
G1 X41.560 Y25.434  F120.000
G1 X41.412 Y25.349 
G1 X41.142 Y25.320 
G1 X40.871 Y25.408 
G1 X40.871 Y20.818 
G1 X40.930 Y20.686 
G1 X41.049 Y20.578 
G1 X41.049 Y18.316 
G1 X41.077 Y18.254 
G1 X41.128 Y18.208 
G1 X41.201 Y18.184 
G1 X48.191 Y18.184 
G1 X48.191 Y18.486 
G1 X48.301 Y18.734 
G1 X48.503 Y18.916 
G1 X48.762 Y19.000 
G1 X49.032 Y18.971 
G1 X49.180 Y18.886 
G1 X49.180 Y20.661 
G1 X57.122 Y20.661 
G1 X57.081 Y20.754 
G1 X57.081 Y21.026 
G1 X57.122 Y21.119 
G1 X49.180 Y21.119 
G1 X49.180 Y22.894 
G1 X49.032 Y22.809 
G1 X48.762 Y22.780 
G1 X48.503 Y22.864 
G1 X48.301 Y23.046 
G1 X48.191 Y23.294 
G1 X48.191 Y23.596 
G1 X41.605 Y23.596 
G1 X41.260 Y23.596 F4800.000
G1  F4800.00000
G92 E0
G1 Z13.100 F4800.000
G1 X48.157 Y18.034 F4800.000
G1 Z8.100 F4800.000
G1  F4800.00000
G1 X48.481 Y17.746  F120.000
G1 X48.757 Y17.656 
G1 X49.046 Y17.686 
G1 X49.297 Y17.831 
G1 X49.467 Y18.066 
G1 X49.528 Y18.350 
G1 X49.494 Y18.519 
G1 X49.462 Y18.978 
G1  F4800.00000
G92 E0
G1 Z13.100 F4800.000
G1 X49.462 Y22.802 F4800.000
G1 Z8.100 F4800.000
G1  F4800.00000
G1 X49.494 Y23.261  F120.000
G1 X49.528 Y23.430 
G1 X49.467 Y23.714 
G1 X49.297 Y23.949 
G1 X49.046 Y24.094 
G1 X48.757 Y24.124 
G1 X48.481 Y24.034 
G1 X48.157 Y23.746 
G1  F4800.00000
G92 E0
G1 Z13.100 F4800.000
G1 X41.842 Y25.342 F4800.000
G1 Z8.100 F4800.000
G1  F4800.00000
G1 X41.874 Y25.801  F120.000
G1 X41.908 Y25.970 
G1 X41.847 Y26.254 
G1 X41.703 Y26.457 
G1 X41.642 Y26.511 
G1 X41.426 Y26.634 
G1 X41.137 Y26.664 
G1 X40.861 Y26.574 
G1 X40.675 Y26.409 
G1 X40.627 Y26.344 
G1 X40.527 Y26.115 
G1 X40.527 Y25.825 
G1 X40.566 Y25.734 
G1 X40.570 Y25.615 
G1 X40.636 Y25.302 
G1  F4800.00000
G92 E0
G1 Z13.100 F4800.000
G1 X57.118 Y21.269 F4800.000
G1 Z8.100 F4800.000
G1  F4800.00000
G1 X57.339 Y21.468  F120.000
G1 X57.410 Y21.509 
G1 X57.647 Y21.584 
G1 X57.936 Y21.554 
G1 X58.187 Y21.409 
G1 X58.335 Y21.208 
G1 X58.368 Y21.134 
G1 X58.418 Y20.890 
G1 X58.368 Y20.646 
G1 X58.335 Y20.572 
G1 X58.187 Y20.371 
G1 X57.936 Y20.226 
G1 X57.647 Y20.196 
G1 X57.410 Y20.271 
G1 X57.339 Y20.312 
G1 X57.118 Y20.511 
G1 X56.963 Y20.890 F4800.000
G1 X49.062 Y20.890  F120.000
G1  F4800.00000
G92 E0
G1 Z13.100 F4800.000
G1 X48.578 Y19.694 F4800.000
G1 Z8.100 F4800.000
G1  F4800.00000
G1 X48.427 Y19.542  F120.000
G1 X48.578 Y20.036 
G1 X47.328 Y18.786 
G1 X46.986 Y18.786 
G1 X48.578 Y20.378 
G1 X48.578 Y20.720 
G1 X46.644 Y18.786 
G1 X46.302 Y18.786 
G1 X48.578 Y21.062 
G1 X48.578 Y21.405 
G1 X45.960 Y18.786 
G1 X45.617 Y18.786 
G1 X48.578 Y21.747 
G1 X48.578 Y22.089 
G1 X45.275 Y18.786 
G1 X44.933 Y18.786 
G1 X48.420 Y22.273 
G1 X48.179 Y22.374 
G1 X44.591 Y18.786 
G1 X44.248 Y18.786 
G1 X47.999 Y22.536 
G1 X47.819 Y22.699 
G1 X43.906 Y18.786 
G1 X43.564 Y18.786 
G1 X47.711 Y22.933 
G1 X47.430 Y22.994 
G1 X43.222 Y18.786 
G1 X42.879 Y18.786 
G1 X47.088 Y22.994 
G1 X46.746 Y22.994 
G1 X42.537 Y18.786 
G1 X42.195 Y18.786 
G1 X46.404 Y22.994 
G1 X46.061 Y22.994 
G1 X41.853 Y18.786 
G1 X41.651 Y18.926 
G1 X45.719 Y22.994 
G1 X45.377 Y22.994 
G1 X41.651 Y19.268 
G1 X41.651 Y19.611 
G1 X45.035 Y22.994 
G1 X44.692 Y22.994 
G1 X41.651 Y19.953 
G1 X41.651 Y20.295 
G1 X44.350 Y22.994 
G1 X44.008 Y22.994 
G1 X41.651 Y20.637 
G1 X41.566 Y20.895 F4800.000
G1 X43.666 Y22.994  F120.000
G1 X43.324 Y22.994 
G1 X41.472 Y21.143 
G1 X41.472 Y21.485 
G1 X42.981 Y22.994 
G1 X42.639 Y22.994 
G1 X41.472 Y21.828 
G1 X41.472 Y22.170 
G1 X42.297 Y22.994 
G1 X41.955 Y22.994 
G1 X41.472 Y22.512 
G1 X41.472 Y22.854 
G1 X41.612 Y22.994 
G1  F4800.00000
G92 E0
G1 Z13.100 F4800.000
G1 X43.411 Y29.145 F4800.000
G1 Z8.100 F4800.000
G1  F4800.00000
G1 X43.365 Y29.237  F120.000
G1 X39.333 Y29.248 
G1 X39.333 Y29.274 
G1 X37.652 Y29.274 
G1 X37.652 Y29.016 
G1 X39.333 Y29.016 
G1 X39.333 Y29.042 
G1 X43.357 Y29.042 
G1 X43.400 Y29.102 
G1 X43.315 Y29.183 F4800.000
G1 X43.312 Y28.892 F4800.000
G1 X43.312 Y26.219  F120.000
G1  F4800.00000
G92 E0
G1 Z13.100 F4800.000
G1 X51.125 Y24.131 F4800.000
G1 Z8.100 F4800.000
G1  F4800.00000
G1 X50.805 Y23.840  F120.000
G1 X50.687 Y23.575 
G1 X50.687 Y23.285 
G1 X50.787 Y23.056 
G1 X50.835 Y22.991 
G1 X51.021 Y22.826 
G1 X51.297 Y22.736 
G1 X51.586 Y22.766 
G1 X51.802 Y22.889 
G1 X51.863 Y22.943 
G1 X52.007 Y23.146 
G1 X52.068 Y23.430 
G1 X52.007 Y23.714 
G1 X51.704 Y24.135 
G1  F4800.00000
G92 E0
G1 Z13.100 F4800.000
G1 X51.276 Y25.871 F4800.000
G1 Z8.100 F4800.000
G1  F4800.00000
G1 X51.276 Y24.083  F120.000
G1 X51.521 Y24.057 
G1 X51.556 Y24.166 
G1 X51.470 Y24.216 
G1 X51.470 Y25.954 
G1 X51.423 Y26.058 
G1 X43.251 Y26.069 
G1 X43.215 Y25.990 
G1 X43.232 Y25.913 
G1 X43.308 Y25.871 
G1 X51.230 Y25.871 
G1 X51.575 Y25.871 F4800.000
G1  F4800.00000
G92 E0
G1 Z13.100 F4800.000
G1 X45.571 Y30.415 F4800.000
G1 Z8.100 F4800.000
G1  F4800.00000
G1 X45.525 Y30.507  F120.000
G1 X39.333 Y30.518 
G1 X39.333 Y30.544 
G1 X37.652 Y30.544 
G1 X37.652 Y30.286 
G1 X39.333 Y30.286 
G1 X39.333 Y30.312 
G1 X45.517 Y30.312 
G1 X45.560 Y30.372 
G1 X45.476 Y30.453 F4800.000
G1 X45.472 Y30.162 F4800.000
G1 X45.472 Y27.829  F120.000
G1  F4800.00000
G92 E0
G1 Z13.100 F4800.000
G1 X51.125 Y29.079 F4800.000
G1 Z8.100 F4800.000
G1  F4800.00000
G1 X50.805 Y29.370  F120.000
G1 X50.687 Y29.635 
G1 X50.687 Y29.925 
G1 X50.787 Y30.154 
G1 X50.835 Y30.219 
G1 X51.021 Y30.384 
G1 X51.297 Y30.474 
G1 X51.586 Y30.444 
G1 X51.802 Y30.321 
G1 X51.863 Y30.267 
G1 X52.007 Y30.064 
G1 X52.068 Y29.780 
G1 X52.007 Y29.496 
G1 X51.704 Y29.075 
G1  F4800.00000
G92 E0
G1 Z13.100 F4800.000
G1 X51.276 Y27.679 F4800.000
G1 Z8.100 F4800.000
G1  F4800.00000
G1 X45.410 Y27.679  F120.000
G1 X45.375 Y27.560 
G1 X45.422 Y27.496 
G1 X45.468 Y27.481 
G1 X51.388 Y27.489 
G1 X51.439 Y27.513 
G1 X51.470 Y27.596 
G1 X51.470 Y28.994 
G1 X51.557 Y29.044 
G1 X51.521 Y29.153 
G1 X51.276 Y29.127 
G1 X51.276 Y27.724 
G1 X51.276 Y27.379 F4800.000
G1  F4800.00000
G92 E0
G1 Z13.100 F4800.000
G1 X49.061 Y32.091 F4800.000
G1 Z8.100 F4800.000
G1  F4800.00000
G1 X57.122 Y32.091  F120.000
G1 X57.081 Y32.184 
G1 X57.081 Y32.456 
G1 X57.122 Y32.549 
G1 X49.061 Y32.549 
G1 X49.061 Y34.242 
G1 X48.762 Y34.210 
G1 X48.607 Y34.260 
G1 X48.607 Y30.380 
G1 X48.762 Y30.430 
G1 X49.061 Y30.398 
G1 X49.061 Y32.046 
G1 X49.061 Y32.391 F4800.000
G1  F4800.00000
G92 E0
G1 Z13.100 F4800.000
G1 X48.332 Y30.516 F4800.000
G1 Z8.100 F4800.000
G1  F4800.00000
G1 X48.260 Y30.181  F120.000
G1 X48.147 Y29.925 
G1 X48.147 Y29.635 
G1 X48.247 Y29.406 
G1 X48.295 Y29.341 
G1 X48.481 Y29.176 
G1 X48.757 Y29.086 
G1 X49.046 Y29.116 
G1 X49.262 Y29.239 
G1 X49.323 Y29.293 
G1 X49.467 Y29.496 
G1 X49.528 Y29.780 
G1 X49.467 Y30.064 
G1 X49.211 Y30.420 
G1  F4800.00000
G92 E0
G1 Z13.100 F4800.000
G1 X49.211 Y34.220 F4800.000
G1 Z8.100 F4800.000
G1  F4800.00000
G1 X49.467 Y34.576  F120.000
G1 X49.528 Y34.860 
G1 X49.467 Y35.144 
G1 X49.323 Y35.347 
G1 X49.262 Y35.401 
G1 X49.046 Y35.524 
G1 X48.757 Y35.554 
G1 X48.481 Y35.464 
G1 X48.295 Y35.299 
G1 X48.247 Y35.234 
G1 X48.147 Y35.005 
G1 X48.147 Y34.715 
G1 X48.260 Y34.459 
G1 X48.332 Y34.124 
G1  F4800.00000
G92 E0
G1 Z13.100 F4800.000
G1 X57.118 Y32.699 F4800.000
G1 Z8.100 F4800.000
G1  F4800.00000
G1 X57.339 Y32.898  F120.000
G1 X57.409 Y32.939 
G1 X57.647 Y33.014 
G1 X57.936 Y32.984 
G1 X58.187 Y32.839 
G1 X58.335 Y32.638 
G1 X58.368 Y32.564 
G1 X58.418 Y32.320 
G1 X58.368 Y32.076 
G1 X58.335 Y32.002 
G1 X58.187 Y31.801 
G1 X57.936 Y31.656 
G1 X57.647 Y31.626 
G1 X57.409 Y31.701 
G1 X57.339 Y31.742 
G1 X57.118 Y31.941 
G1 X56.963 Y32.320 F4800.000
G1 X48.862 Y32.320  F120.000
G1 X48.834 Y32.431 
G1 X48.834 Y34.099 
G1  F4800.00000
G92 E0
G1 Z13.100 F4800.000
G1 X48.943 Y32.637 F4800.000
G1 Z8.100 F4800.000
G1  F4800.00000
G1 X48.834 Y32.209  F120.000
G1 X48.834 Y30.541 
G1  F4800.00000
G92 E0
G1 Z13.100 F4800.000
G1 X49.061 Y43.521 F4800.000
G1 Z8.100 F4800.000
G1  F4800.00000
G1 X57.122 Y43.521  F120.000
G1 X57.081 Y43.614 
G1 X57.081 Y43.886 
G1 X57.122 Y43.979 
G1 X49.061 Y43.979 
G1 X49.061 Y45.672 
G1 X48.762 Y45.640 
G1 X48.607 Y45.690 
G1 X48.607 Y43.979 
G1 X47.026 Y43.979 
G1 X47.002 Y44.013 
G1 X46.897 Y43.966 
G1 X46.943 Y43.750 
G1 X46.897 Y43.534 
G1 X47.002 Y43.487 
G1 X47.026 Y43.521 
G1 X48.607 Y43.521 
G1 X48.607 Y41.810 
G1 X48.762 Y41.860 
G1 X49.061 Y41.828 
G1 X49.061 Y43.476 
G1 X49.061 Y43.821 F4800.000
G1  F4800.00000
G92 E0
G1 Z13.100 F4800.000
G1 X48.332 Y41.946 F4800.000
G1 Z8.100 F4800.000
G1  F4800.00000
G1 X48.260 Y41.611  F120.000
G1 X48.147 Y41.355 
G1 X48.147 Y41.065 
G1 X48.247 Y40.836 
G1 X48.295 Y40.771 
G1 X48.481 Y40.606 
G1 X48.757 Y40.516 
G1 X49.046 Y40.546 
G1 X49.262 Y40.669 
G1 X49.323 Y40.723 
G1 X49.467 Y40.926 
G1 X49.528 Y41.210 
G1 X49.467 Y41.494 
G1 X49.211 Y41.850 
G1  F4800.00000
G92 E0
G1 Z13.100 F4800.000
G1 X46.956 Y43.344 F4800.000
G1 Z8.100 F4800.000
G1  F4800.00000
G1 X46.506 Y43.086  F120.000
G1 X46.217 Y43.056 
G1 X45.941 Y43.146 
G1 X45.755 Y43.311 
G1 X45.707 Y43.376 
G1 X45.605 Y43.646 
G1 X45.607 Y43.895 
G1 X45.725 Y44.160 
G1 X45.909 Y44.328 
G1 X45.979 Y44.369 
G1 X46.217 Y44.444 
G1 X46.506 Y44.414 
G1 X46.956 Y44.156 
G1  F4800.00000
G92 E0
G1 Z13.100 F4800.000
G1 X48.332 Y45.554 F4800.000
G1 Z8.100 F4800.000
G1  F4800.00000
G1 X48.260 Y45.889  F120.000
G1 X48.147 Y46.145 
G1 X48.147 Y46.435 
G1 X48.247 Y46.664 
G1 X48.295 Y46.729 
G1 X48.481 Y46.894 
G1 X48.757 Y46.984 
G1 X49.046 Y46.954 
G1 X49.262 Y46.831 
G1 X49.323 Y46.777 
G1 X49.467 Y46.574 
G1 X49.528 Y46.290 
G1 X49.467 Y46.006 
G1 X49.211 Y45.650 
G1  F4800.00000
G92 E0
G1 Z13.100 F4800.000
G1 X57.118 Y44.129 F4800.000
G1 Z8.100 F4800.000
G1  F4800.00000
G1 X57.339 Y44.328  F120.000
G1 X57.409 Y44.369 
G1 X57.647 Y44.444 
G1 X57.936 Y44.414 
G1 X58.187 Y44.269 
G1 X58.335 Y44.068 
G1 X58.368 Y43.994 
G1 X58.418 Y43.750 
G1 X58.368 Y43.506 
G1 X58.335 Y43.432 
G1 X58.187 Y43.231 
G1 X57.936 Y43.086 
G1 X57.647 Y43.056 
G1 X57.409 Y43.131 
G1 X57.339 Y43.172 
G1 X57.118 Y43.371 
G1 X56.963 Y43.750 F4800.000
G1 X48.834 Y43.750  F120.000
G1 X48.834 Y45.529 
G1  F4800.00000
G92 E0
G1 Z13.100 F4800.000
G1 X48.834 Y44.221 F4800.000
G1 Z8.100 F4800.000
G1  F4800.00000
G1 X48.834 Y41.971  F120.000
G1  F4800.00000
G92 E0
G1 Z13.100 F4800.000
G1 X49.305 Y43.750 F4800.000
G1 Z8.100 F4800.000
G1  F4800.00000
G1 X47.064 Y43.750  F120.000
G1  F4800.00000
G92 E0
G1 Z13.100 F4800.000
G1 X56.972 Y50.133 F4800.000
G1 Z8.100 F4800.000
G1  F4800.00000
G1 X57.322 Y49.817  F120.000
G1 X57.497 Y49.760 
G1 X57.771 Y49.671  F120.000
G1 X58.241 Y49.721 
G1 X58.650 Y49.956 
G1 X58.927 Y50.338 
G1 X59.025 Y50.800 
G1 X58.927 Y51.262 
G1 X58.650 Y51.644 
G1 X58.241 Y51.879 
G1 X57.771 Y51.929 
G1 X57.322 Y51.783 
G1 X56.972 Y51.467 
G1 X56.780 Y51.036 
G1 X56.780 Y50.564 
G1 X56.953 Y50.174 
G1 X57.167 Y50.274 F4800.000
G1 X57.443 Y50.026  F120.000
G1 X57.570 Y49.984 
G1 X57.796 Y49.911  F120.000
G1 X58.166 Y49.950 
G1 X58.488 Y50.135 
G1 X58.707 Y50.436 
G1 X58.784 Y50.800 
G1 X58.707 Y51.164 
G1 X58.488 Y51.465 
G1 X58.166 Y51.650 
G1 X57.796 Y51.689 
G1 X57.443 Y51.574 
G1 X57.167 Y51.326 
G1 X57.015 Y50.986 
G1 X57.015 Y50.614 
G1 X57.148 Y50.315 
G1 X57.251 Y50.936 F4800.000
G1 X57.251 Y50.664  F120.000
G1 X57.361 Y50.416 
G1 X57.563 Y50.234 
G1 X57.822 Y50.150 
G1 X58.092 Y50.179 
G1 X58.327 Y50.314 
G1 X58.487 Y50.534 
G1 X58.543 Y50.800 
G1 X58.487 Y51.066 
G1 X58.327 Y51.286 
G1 X58.092 Y51.421 
G1 X57.822 Y51.450 
G1 X57.563 Y51.366 
G1 X57.361 Y51.184 
G1 X57.269 Y50.977 
G1 X56.999 Y50.834 F4800.000
G1  F4800.00000
G92 E0
G1 Z13.100 F4800.000
G1 X54.221 Y51.675 F4800.000
G1 Z8.100 F4800.000
G1  F4800.00000
G1 X54.221 Y49.135  F120.000
G1 X60.020 Y49.135 
G1 X60.020 Y52.398 
G1 X41.459 Y52.398 
G1 X41.459 Y49.920 
G1 X41.561 Y49.909 
G1 X41.970 Y49.674 
G1 X42.247 Y49.292 
G1 X42.280 Y49.135 
G1 X43.446 Y49.135 
G1 X43.446 Y51.675 
G1 X54.176 Y51.675 
G1 X53.985 Y51.440 F4800.000
G1 X53.985 Y48.900  F120.000
G1 X60.255 Y48.900 
G1 X60.255 Y52.633 
G1 X41.223 Y52.633 
G1 X41.223 Y49.708 
G1 X41.486 Y49.680 
G1 X41.808 Y49.495 
G1 X42.027 Y49.194 
G1 X42.089 Y48.900 
G1 X43.682 Y48.900 
G1 X43.682 Y51.440 
G1 X53.940 Y51.440 
G1  F4800.00000
G92 E0
G1 Z13.100 F4800.000
G1 X54.994 Y40.968 F4800.000
G1 Z8.100 F4800.000
G1  F4800.00000
G1 X54.947 Y40.748  F120.000
G1 X54.670 Y40.366 
G1 X54.221 Y40.107 
G1 X54.221 Y35.963 
G1 X54.670 Y35.704 
G1 X54.947 Y35.322 
G1 X54.994 Y35.102 
G1 X56.612 Y35.102 
G1 X56.802 Y35.527 
G1 X57.152 Y35.843 
G1 X57.601 Y35.989 
G1 X58.071 Y35.939 
G1 X58.480 Y35.704 
G1 X58.757 Y35.322 
G1 X58.804 Y35.102 
G1 X60.020 Y35.102 
G1 X60.020 Y40.968 
G1 X55.039 Y40.968 
G1 X54.803 Y41.203 F4800.000
G1 X54.727 Y40.846  F120.000
G1 X54.508 Y40.545 
G1 X54.186 Y40.360 
G1 X53.985 Y40.338 
G1 X53.985 Y35.732 
G1 X54.186 Y35.710 
G1 X54.508 Y35.525 
G1 X54.727 Y35.224 
G1 X54.803 Y34.867 
G1 X56.845 Y34.867 
G1 X56.845 Y35.046 
G1 X56.997 Y35.386 
G1 X57.273 Y35.634 
G1 X57.626 Y35.749 
G1 X57.996 Y35.710 
G1 X58.318 Y35.525 
G1 X58.537 Y35.224 
G1 X58.613 Y34.867 
G1 X60.255 Y34.867 
G1 X60.255 Y41.203 
G1 X54.848 Y41.203 
G1  F4800.00000
G92 E0
G1 Z13.100 F4800.000
G1 X54.994 Y29.538 F4800.000
G1 Z8.100 F4800.000
G1  F4800.00000
G1 X54.947 Y29.318  F120.000
G1 X54.670 Y28.936 
G1 X54.221 Y28.677 
G1 X54.221 Y24.533 
G1 X54.670 Y24.274 
G1 X54.947 Y23.892 
G1 X54.994 Y23.672 
G1 X60.020 Y23.672 
G1 X60.020 Y29.538 
G1 X55.039 Y29.538 
G1 X54.803 Y29.773 F4800.000
G1 X54.727 Y29.416  F120.000
G1 X54.508 Y29.115 
G1 X54.186 Y28.930 
G1 X53.985 Y28.908 
G1 X53.985 Y24.302 
G1 X54.186 Y24.280 
G1 X54.508 Y24.095 
G1 X54.727 Y23.794 
G1 X54.803 Y23.437 
G1 X60.255 Y23.437 
G1 X60.255 Y29.773 
G1 X54.848 Y29.773 
G1  F4800.00000
G92 E0
G1 Z13.100 F4800.000
G1 X57.771 Y17.369 F4800.000
G1 Z8.100 F4800.000
G1  F4800.00000
G1 X57.322 Y17.223  F120.000
G1 X56.972 Y16.907 
G1 X56.780 Y16.476 
G1 X56.780 Y16.004 
G1 X56.972 Y15.573 
G1 X57.322 Y15.257 
G1 X57.497 Y15.200 
G1 X57.771 Y15.111  F120.000
G1 X58.241 Y15.160 
G1 X58.650 Y15.396 
G1 X58.927 Y15.778 
G1 X59.025 Y16.240 
G1 X58.927 Y16.702 
G1 X58.650 Y17.084 
G1 X58.241 Y17.320 
G1 X57.816 Y17.364 
G1 X57.796 Y17.129 F4800.000
G1 X57.443 Y17.014  F120.000
G1 X57.167 Y16.766 
G1 X57.015 Y16.426 
G1 X57.015 Y16.054 
G1 X57.167 Y15.714 
G1 X57.443 Y15.466 
G1 X57.570 Y15.424 
G1 X57.796 Y15.351  F120.000
G1 X58.166 Y15.390 
G1 X58.488 Y15.575 
G1 X58.707 Y15.876 
G1 X58.784 Y16.240 
G1 X58.707 Y16.604 
G1 X58.488 Y16.905 
G1 X58.166 Y17.090 
G1 X57.841 Y17.125 
G1 X57.251 Y16.376 F4800.000
G1 X57.251 Y16.104  F120.000
G1 X57.361 Y15.856 
G1 X57.563 Y15.674 
G1 X57.822 Y15.590 
G1 X58.092 Y15.619 
G1 X58.327 Y15.754 
G1 X58.487 Y15.974 
G1 X58.543 Y16.240 
G1 X58.487 Y16.506 
G1 X58.327 Y16.726 
G1 X58.092 Y16.861 
G1 X57.822 Y16.890 
G1 X57.563 Y16.806 
G1 X57.361 Y16.624 
G1 X57.269 Y16.417 
G1 X56.999 Y16.274 F4800.000
G1  F4800.00000
G92 E0
G1 Z13.100 F4800.000
G1 X54.994 Y18.108 F4800.000
G1 Z8.100 F4800.000
G1  F4800.00000
G1 X54.947 Y17.888  F120.000
G1 X54.670 Y17.506 
G1 X54.221 Y17.247 
G1 X54.221 Y14.846 
G1 X59.956 Y14.855 
G1 X59.956 Y18.108 
G1 X55.039 Y18.108 
G1 X54.803 Y18.343 F4800.000
G1 X54.727 Y17.986  F120.000
G1 X54.508 Y17.685 
G1 X54.186 Y17.500 
G1 X53.985 Y17.478 
G1 X53.985 Y14.610 
G1 X60.192 Y14.620 
G1 X60.192 Y18.343 
G1 X54.848 Y18.343 
G1 X54.347 Y17.864 F4800.000
G1 X54.112 Y17.729  F120.000
G1 X53.842 Y17.700 
G1 X53.749 Y17.730 
G1 X53.749 Y14.659 
G1 X53.681 Y14.659 
G1 X53.777 Y14.444 
G1 X53.828 Y14.398 
G1 X53.900 Y14.374 
G1 X60.292 Y14.385 
G1 X60.374 Y14.423 
G1 X60.410 Y14.473 
G1 X60.427 Y14.556 
G1 X60.427 Y18.202 
G1 X60.468 Y18.257 
G1 X60.491 Y18.366 
G1 X60.491 Y52.624 
G1 X60.468 Y52.733 
G1 X60.412 Y52.809 
G1 X60.330 Y52.856 
G1 X60.212 Y52.869 
G1 X41.194 Y52.869 
G1 X41.096 Y52.837 
G1 X40.987 Y52.739 
G1 X31.048 Y52.739 
G1 X31.002 Y52.724 
G1 X30.956 Y52.660 
G1 X30.990 Y52.541 
G1 X40.987 Y52.541 
G1 X40.987 Y49.430 
G1 X41.142 Y49.480 
G1 X41.412 Y49.451 
G1 X41.647 Y49.316 
G1 X41.807 Y49.096 
G1 X41.863 Y48.830 
G1 X41.828 Y48.664 
G1 X43.709 Y48.664 
G1 X43.801 Y48.674 
G1 X43.860 Y48.708 
G1 X43.900 Y48.763 
G1 X43.917 Y48.846 
G1 X43.917 Y51.204 
G1 X53.749 Y51.204 
G1 X53.749 Y48.796 
G1 X53.777 Y48.734 
G1 X53.828 Y48.688 
G1 X53.901 Y48.664 
G1 X60.037 Y48.664 
G1 X60.037 Y46.519 
G1 X58.456 Y46.519 
G1 X58.432 Y46.553 
G1 X58.327 Y46.506 
G1 X58.373 Y46.290 
G1 X58.327 Y46.074 
G1 X58.432 Y46.027 
G1 X58.456 Y46.061 
G1 X60.037 Y46.061 
G1 X60.037 Y41.439 
G1 X54.646 Y41.439 
G1 X54.622 Y41.473 
G1 X54.517 Y41.426 
G1 X54.563 Y41.210 
G1 X54.507 Y40.944 
G1 X54.347 Y40.724 
G1 X54.112 Y40.589 
G1 X53.842 Y40.560 
G1 X53.749 Y40.590 
G1 X53.749 Y35.480 
G1 X53.842 Y35.510 
G1 X54.112 Y35.481 
G1 X54.347 Y35.346 
G1 X54.507 Y35.126 
G1 X54.563 Y34.860 
G1 X54.517 Y34.644 
G1 X54.622 Y34.597 
G1 X54.646 Y34.631 
G1 X57.122 Y34.631 
G1 X57.081 Y34.724 
G1 X57.081 Y34.996 
G1 X57.191 Y35.244 
G1 X57.393 Y35.426 
G1 X57.652 Y35.510 
G1 X57.922 Y35.481 
G1 X58.157 Y35.346 
G1 X58.317 Y35.126 
G1 X58.373 Y34.860 
G1 X58.327 Y34.644 
G1 X58.432 Y34.597 
G1 X58.456 Y34.631 
G1 X60.037 Y34.631 
G1 X60.037 Y30.009 
G1 X54.646 Y30.009 
G1 X54.622 Y30.043 
G1 X54.517 Y29.996 
G1 X54.563 Y29.780 
G1 X54.507 Y29.514 
G1 X54.347 Y29.294 
G1 X54.112 Y29.159 
G1 X53.842 Y29.130 
G1 X53.749 Y29.160 
G1 X53.749 Y24.050 
G1 X53.842 Y24.080 
G1 X54.112 Y24.051 
G1 X54.347 Y23.916 
G1 X54.507 Y23.696 
G1 X54.563 Y23.430 
G1 X54.517 Y23.214 
G1 X54.622 Y23.167 
G1 X54.646 Y23.201 
G1 X60.037 Y23.201 
G1 X60.037 Y18.579 
G1 X54.646 Y18.579 
G1 X54.622 Y18.613 
G1 X54.517 Y18.566 
G1 X54.563 Y18.350 
G1 X54.507 Y18.084 
G1 X54.374 Y17.901 
G1 X54.385 Y17.595 F4800.000
G1  F4800.00000
G92 E0
G1 Z13.100 F4800.000
G1 X53.535 Y14.620 F4800.000
G1 Z8.100 F4800.000
G1  F4800.00000
G1 X36.480 Y14.620  F120.000
G1 X36.325 Y14.652 
G1 X36.292 Y14.809 
G1 X36.292 Y30.090 
G1 X36.259 Y30.248 
G1 X36.104 Y30.280 
G1 X34.758 Y30.280 
G1 X34.608 Y30.241 F4800.000
G1 X34.608 Y30.544  F120.000
G1 X32.927 Y30.544 
G1 X32.927 Y30.241 
G1 X34.563 Y30.241 
G1 X34.458 Y30.500 F4800.000
G1  F4800.00000
G92 E0
G1 Z13.100 F4800.000
G1 X32.777 Y30.280 F4800.000
G1 Z8.100 F4800.000
G1  F4800.00000
G1 X24.600 Y30.280  F120.000
G1 X24.445 Y30.248 
G1 X24.412 Y30.090 
G1 X24.412 Y27.430 
G1 X24.382 Y27.278 
G1 X24.224 Y27.244 
G1 X19.080 Y27.240 
G1 X18.987 Y26.956 
G1 X18.817 Y26.721 
G1 X18.566 Y26.576 
G1 X18.277 Y26.546 
G1 X18.001 Y26.636 
G1 X17.785 Y26.830 
G1 X17.667 Y27.095 
G1 X17.667 Y27.385 
G1 X17.785 Y27.650 
G1 X18.001 Y27.844 
G1 X18.277 Y27.934 
G1 X18.566 Y27.904 
G1 X18.817 Y27.759 
G1 X18.965 Y27.558 
G1 X19.057 Y27.284 
G1 X19.201 Y27.010 
G1  F4800.00000
G92 E0
G1 Z13.100 F4800.000
G1 X31.052 Y37.018 F4800.000
G1 Z8.100 F4800.000
G1  F4800.00000
G1 X31.052 Y52.391  F120.000
G1  F4800.00000
G92 E0
G1 Z13.100 F4800.000
G1 X40.712 Y49.566 F4800.000
G1 Z8.100 F4800.000
G1  F4800.00000
G1 X40.640 Y49.231  F120.000
G1 X40.542 Y49.014 
G1 X40.525 Y48.934 
G1 X40.527 Y48.685 
G1 X40.640 Y48.429 
G1 X40.712 Y48.094 
G1  F4800.00000
G92 E0
G1 Z13.100 F4800.000
G1 X40.712 Y47.026 F4800.000
G1 Z8.100 F4800.000
G1  F4800.00000
G1 X40.640 Y46.691  F120.000
G1 X40.542 Y46.474 
G1 X40.525 Y46.394 
G1 X40.527 Y46.145 
G1 X40.640 Y45.889 
G1 X40.712 Y45.554 
G1 X41.591 Y45.650 F4800.000
G1 X41.847 Y46.006  F120.000
G1 X41.908 Y46.290 
G1 X41.847 Y46.574 
G1 X41.591 Y46.930 
G1 X40.987 Y46.890 F4800.000
G1 X41.142 Y46.940  F120.000
G1 X41.441 Y46.908 
G1 X41.441 Y48.212 
G1 X41.142 Y48.180 
G1 X40.987 Y48.230 
G1 X40.987 Y46.935 
G1 X41.108 Y46.998 F4800.000
G1  F4800.00000
G92 E0
G1 Z13.100 F4800.000
G1 X40.712 Y44.486 F4800.000
G1 Z8.100 F4800.000
G1  F4800.00000
G1 X40.640 Y44.151  F120.000
G1 X40.527 Y43.895 
G1 X40.527 Y43.605 
G1 X40.627 Y43.376 
G1 X40.675 Y43.311 
G1 X40.861 Y43.146 
G1 X41.137 Y43.056 
G1 X41.426 Y43.086 
G1 X41.642 Y43.209 
G1 X41.703 Y43.263 
G1 X41.847 Y43.466 
G1 X41.908 Y43.750 
G1 X41.847 Y44.034 
G1 X41.591 Y44.390 
G1  F4800.00000
G92 E0
G1 Z13.100 F4800.000
G1 X40.987 Y45.690 F4800.000
G1 Z8.100 F4800.000
G1  F4800.00000
G1 X40.987 Y44.350  F120.000
G1 X41.142 Y44.400 
G1 X41.441 Y44.368 
G1 X41.441 Y45.672 
G1 X41.142 Y45.640 
G1 X41.030 Y45.676 
G1 X41.109 Y45.416 F4800.000
G1  F4800.00000
G92 E0
G1 Z13.100 F4800.000
G1 X34.608 Y36.894 F4800.000
G1 Z8.100 F4800.000
G1  F4800.00000
G1 X32.927 Y36.894  F120.000
G1 X32.927 Y36.868 
G1 X30.994 Y36.868 
G1 X30.951 Y36.782 
G1 X30.951 Y36.744 
G1 X31.000 Y36.678 
G1 X31.047 Y36.662 
G1 X32.927 Y36.662 
G1 X32.927 Y36.636 
G1 X34.608 Y36.636 
G1 X34.608 Y36.849 
G1 X34.349 Y36.744 F4800.000
G1  F4800.00000
G92 E0
G1 Z13.100 F4800.000
G1 X53.599 Y35.502 F4800.000
G1 Z8.100 F4800.000
G1  F4800.00000
G1 X53.345 Y35.270  F120.000
G1 X53.227 Y35.005 
G1 X53.227 Y34.715 
G1 X53.345 Y34.450 
G1 X53.561 Y34.256 
G1 X53.837 Y34.166 
G1 X54.126 Y34.196 
G1 X54.576 Y34.454 
G1  F4800.00000
G92 E0
G1 Z13.100 F4800.000
G1 X57.118 Y34.481 F4800.000
G1 Z8.100 F4800.000
G1  F4800.00000
G1 X57.371 Y34.256  F120.000
G1 X57.647 Y34.166 
G1 X57.936 Y34.196 
G1 X58.386 Y34.454 
G1  F4800.00000
G92 E0
G1 Z13.100 F4800.000
G1 X54.576 Y30.186 F4800.000
G1 Z8.100 F4800.000
G1  F4800.00000
G1 X54.126 Y30.444  F120.000
G1 X53.837 Y30.474 
G1 X53.561 Y30.384 
G1 X53.345 Y30.190 
G1 X53.227 Y29.925 
G1 X53.227 Y29.635 
G1 X53.345 Y29.370 
G1 X53.599 Y29.138 
G1  F4800.00000
G92 E0
G1 Z13.100 F4800.000
G1 X53.599 Y24.072 F4800.000
G1 Z8.100 F4800.000
G1  F4800.00000
G1 X53.345 Y23.840  F120.000
G1 X53.227 Y23.575 
G1 X53.227 Y23.285 
G1 X53.345 Y23.020 
G1 X53.561 Y22.826 
G1 X53.837 Y22.736 
G1 X54.126 Y22.766 
G1 X54.576 Y23.024 
G1  F4800.00000
G92 E0
G1 Z13.100 F4800.000
G1 X54.576 Y18.756 F4800.000
G1 Z8.100 F4800.000
G1  F4800.00000
G1 X54.126 Y19.014  F120.000
G1 X53.837 Y19.044 
G1 X53.561 Y18.954 
G1 X53.345 Y18.760 
G1 X53.227 Y18.495 
G1 X53.227 Y18.205 
G1 X53.345 Y17.940 
G1 X53.599 Y17.708 
G1  F4800.00000
G92 E0
G1 Z13.100 F4800.000
G1 X53.599 Y40.568 F4800.000
G1 Z8.100 F4800.000
G1  F4800.00000
G1 X53.345 Y40.800  F120.000
G1 X53.227 Y41.065 
G1 X53.227 Y41.355 
G1 X53.345 Y41.620 
G1 X53.561 Y41.814 
G1 X53.837 Y41.904 
G1 X54.126 Y41.874 
G1 X54.576 Y41.616 
G1  F4800.00000
G92 E0
G1 Z13.100 F4800.000
G1 X54.576 Y45.884 F4800.000
G1 Z8.100 F4800.000
G1  F4800.00000
G1 X54.126 Y45.626  F120.000
G1 X53.837 Y45.596 
G1 X53.561 Y45.686 
G1 X53.375 Y45.851 
G1 X53.242 Y46.106 
G1 X53.225 Y46.186 
G1 X53.227 Y46.435 
G1 X53.345 Y46.700 
G1 X53.529 Y46.868 
G1 X53.599 Y46.909 
G1 X53.837 Y46.984 
G1 X54.126 Y46.954 
G1 X54.576 Y46.696 
G1 X54.646 Y46.061 F4800.000
G1 X57.122 Y46.061  F120.000
G1 X57.081 Y46.154 
G1 X57.081 Y46.426 
G1 X57.122 Y46.519 
G1 X54.646 Y46.519 
G1 X54.622 Y46.553 
G1 X54.517 Y46.506 
G1 X54.563 Y46.290 
G1 X54.517 Y46.074 
G1 X54.619 Y46.029 
G1 X54.805 Y46.316 F4800.000
G1  F4800.00000
G92 E0
G1 Z13.100 F4800.000
G1 X57.118 Y45.911 F4800.000
G1 Z8.100 F4800.000
G1  F4800.00000
G1 X57.371 Y45.686  F120.000
G1 X57.647 Y45.596 
G1 X57.936 Y45.626 
G1 X58.386 Y45.884 
G1 X58.386 Y46.696 F4800.000
G1 X57.936 Y46.954  F120.000
G1 X57.647 Y46.984 
G1 X57.371 Y46.894 
G1 X57.118 Y46.669 
G1 X56.963 Y46.290 F4800.000
G1 X54.684 Y46.290  F120.000
G1  F4800.00000
G92 E0
G1 Z13.100 F4800.000
G1 X58.494 Y46.290 F4800.000
G1 Z8.100 F4800.000
G1  F4800.00000
G1 X60.373 Y46.290  F120.000
G1  F4800.00000
G92 E0
G1 Z13.100 F4800.000
G1 X60.264 Y48.782 F4800.000
G1 Z8.100 F4800.000
G1  F4800.00000
G1 X60.264 Y46.401  F120.000
G1 X60.236 Y46.290 
G1 X60.264 Y46.179 
G1 X60.264 Y41.321 
G1  F4800.00000
G92 E0
G1 Z13.100 F4800.000
G1 X55.080 Y40.691 F4800.000
G1 Z8.100 F4800.000
G1  F4800.00000
G1 X55.226 Y40.837  F120.000
G1 X55.563 Y40.837 
G1 X54.351 Y39.625 
G1 X54.351 Y39.287 
G1 X55.901 Y40.837 
G1 X56.239 Y40.837 
G1 X54.351 Y38.950 
G1 X54.351 Y38.612 
G1 X56.576 Y40.837 
G1 X56.914 Y40.837 
G1 X54.351 Y38.274 
G1 X54.351 Y37.937 
G1 X57.251 Y40.837 
G1 X57.589 Y40.837 
G1 X54.351 Y37.599 
G1 X54.351 Y37.262 
G1 X57.927 Y40.837 
G1 X58.264 Y40.837 
G1 X54.351 Y36.924 
G1 X54.351 Y36.586 
G1 X58.602 Y40.837 
G1 X58.940 Y40.837 
G1 X54.351 Y36.249 
G1 X54.418 Y35.978 
G1 X59.277 Y40.837 
G1 X59.615 Y40.837 
G1 X54.632 Y35.855 
G1 X54.811 Y35.696 
G1 X59.889 Y40.774 
G1 X59.889 Y40.437 
G1 X54.953 Y35.501 
G1 X55.078 Y35.288 
G1 X59.889 Y40.099 
G1 X59.889 Y39.762 
G1 X55.360 Y35.233 
G1 X55.698 Y35.233 
G1 X59.889 Y39.424 
G1 X59.889 Y39.086 
G1 X56.036 Y35.233 
G1 X56.373 Y35.233 
G1 X56.603 Y35.463 
G1 X57.133 Y35.993 F4800.000
G1 X59.889 Y38.749  F120.000
G1 X59.889 Y38.411 
G1 X57.594 Y36.116 
G1 X57.900 Y36.084 
G1 X59.889 Y38.074 
G1 X59.889 Y37.736 
G1 X58.167 Y36.013 
G1 X58.381 Y35.890 
G1 X59.889 Y37.398 
G1 X59.889 Y37.061 
G1 X58.581 Y35.752 
G1 X58.723 Y35.557 
G1 X59.889 Y36.723 
G1 X59.889 Y36.385 
G1 X58.865 Y35.361 
G1 X59.074 Y35.233 
G1 X59.889 Y36.048 
G1 X59.889 Y35.710 
G1 X59.412 Y35.233 
G1 X59.750 Y35.233 
G1 X59.889 Y35.373 
G1 X60.264 Y34.749 F4800.000
G1 X60.264 Y29.891  F120.000
G1  F4800.00000
G92 E0
G1 Z13.100 F4800.000
G1 X55.080 Y29.261 F4800.000
G1 Z8.100 F4800.000
G1  F4800.00000
G1 X55.226 Y29.407  F120.000
G1 X55.563 Y29.407 
G1 X54.351 Y28.195 
G1 X54.351 Y27.857 
G1 X55.901 Y29.407 
G1 X56.239 Y29.407 
G1 X54.351 Y27.520 
G1 X54.351 Y27.182 
G1 X56.576 Y29.407 
G1 X56.914 Y29.407 
G1 X54.351 Y26.844 
G1 X54.351 Y26.507 
G1 X57.251 Y29.407 
G1 X57.589 Y29.407 
G1 X54.351 Y26.169 
G1 X54.351 Y25.832 
G1 X57.927 Y29.407 
G1 X58.264 Y29.407 
G1 X54.351 Y25.494 
G1 X54.351 Y25.156 
G1 X58.602 Y29.407 
G1 X58.940 Y29.407 
G1 X54.351 Y24.819 
G1 X54.418 Y24.548 
G1 X59.277 Y29.407 
G1 X59.615 Y29.407 
G1 X54.632 Y24.425 
G1 X54.811 Y24.266 
G1 X59.889 Y29.344 
G1 X59.889 Y29.007 
G1 X54.953 Y24.071 
G1 X55.078 Y23.858 
G1 X59.889 Y28.669 
G1 X59.889 Y28.332 
G1 X55.360 Y23.803 
G1 X55.698 Y23.803 
G1 X59.889 Y27.994 
G1 X59.889 Y27.656 
G1 X56.036 Y23.803 
G1 X56.373 Y23.803 
G1 X59.889 Y27.319 
G1 X59.889 Y26.981 
G1 X56.711 Y23.803 
G1 X57.049 Y23.803 
G1 X59.889 Y26.644 
G1 X59.889 Y26.306 
G1 X57.386 Y23.803 
G1 X57.724 Y23.803 
G1 X59.889 Y25.968 
G1 X59.889 Y25.631 
G1 X58.061 Y23.803 
G1 X58.399 Y23.803 
G1 X59.889 Y25.293 
G1 X59.889 Y24.955 
G1 X58.737 Y23.803 
G1 X59.074 Y23.803 
G1 X59.889 Y24.618 
G1 X59.889 Y24.280 
G1 X59.412 Y23.803 
G1 X59.750 Y23.803 
G1 X59.889 Y23.943 
G1 X60.264 Y23.319 F4800.000
G1 X60.264 Y18.461  F120.000
G1  F4800.00000
G92 E0
G1 Z13.100 F4800.000
G1 X57.597 Y17.977 F4800.000
G1 Z8.100 F4800.000
G1  F4800.00000
G1 X54.597 Y14.977  F120.000
G1 X54.351 Y15.070 
G1 X57.258 Y17.977 
G1 X56.920 Y17.977 F4800.000
G1 X54.351 Y15.409  F120.000
G1 X54.351 Y15.748 
G1 X56.581 Y17.977 
G1 X56.242 Y17.977 
G1 X54.351 Y16.086 
G1 X54.351 Y16.425 
G1 X55.903 Y17.977 
G1 X55.565 Y17.977 
G1 X54.351 Y16.764 
G1  F4800.00000
G92 E0
G1 Z13.100 F4800.000
G1 X55.080 Y17.831 F4800.000
G1 Z8.100 F4800.000
G1  F4800.00000
G1 X55.226 Y17.977  F120.000
G1  F4800.00000
G92 E0
G1 Z13.100 F4800.000
G1 X56.751 Y16.793 F4800.000
G1 Z8.100 F4800.000
G1  F4800.00000
G1 X54.936 Y14.978  F120.000
G1 X55.275 Y14.978 
G1 X56.649 Y16.352 
G1 X56.650 Y16.014 
G1 X55.614 Y14.979 
G1 X55.954 Y14.979 
G1 X56.754 Y15.780 
G1 X56.859 Y15.545 
G1 X56.293 Y14.980 
G1 X56.632 Y14.980 
G1 X57.027 Y15.375 
G1 X57.076 Y15.085 
G1 X56.972 Y14.981 
G1  F4800.00000
G92 E0
G1 Z13.100 F4800.000
G1 X57.344 Y17.386 F4800.000
G1 Z8.100 F4800.000
G1  F4800.00000
G1 X57.936 Y17.977  F120.000
G1 X58.275 Y17.977 
G1 X57.790 Y17.493 
G1 X58.097 Y17.461 
G1 X58.613 Y17.977 
G1 X58.952 Y17.977 
G1 X58.357 Y17.382 
G1 X58.571 Y17.258 
G1 X59.291 Y17.977 
G1 X59.629 Y17.977 
G1 X58.765 Y17.113 
G1 X58.907 Y16.917 
G1 X59.826 Y17.835 
G1 X59.826 Y17.496 
G1 X59.047 Y16.718 
G1 X59.107 Y16.438 
G1 X59.826 Y17.158 
G1 X59.826 Y16.819 
G1 X59.149 Y16.142 
G1 X59.058 Y15.712 
G1 X59.826 Y16.480 
G1 X59.826 Y16.141 
G1 X58.794 Y15.109 
G1 X59.007 Y14.984 
G1 X59.826 Y15.803 
G1 X59.826 Y15.464 
G1 X59.347 Y14.985 
G1 X59.686 Y14.985 
G1 X59.826 Y15.125 
G1  F4800.00000
G92 E0
G1 Z13.100 F4800.000
G1 X58.670 Y15.111 F4800.000
G1 Z8.100 F4800.000
G1  F4800.00000
G1 X58.282 Y15.008  F120.000
G1 X57.760 Y14.980 
G1 X57.487 Y15.023 
G1 X57.292 Y15.136 
G1  F4800.00000
G92 E0
G1 Z13.100 F4800.000
G1 X34.491 Y30.392 F4800.000
G1 Z8.100 F4800.000
G1  F4800.00000
G1 X33.045 Y30.392  F120.000
G1  F4800.00000
G92 E0
G1 Z13.100 F4800.000
G1 X41.214 Y44.511 F4800.000
G1 Z8.100 F4800.000
G1  F4800.00000
G1 X41.214 Y45.529  F120.000
G1  F4800.00000
G92 E0
G1 Z13.100 F4800.000
G1 X41.214 Y47.051 F4800.000
G1 Z8.100 F4800.000
G1  F4800.00000
G1 X41.214 Y48.069  F120.000
G1  F4800.00000
G92 E0
G1 Z13.100 F4800.000
G1 X41.589 Y50.460 F4800.000
G1 Z8.100 F4800.000
G1  F4800.00000
G1 X43.396 Y52.267  F120.000
G1 X43.063 Y52.267 
G1 X41.589 Y50.794 
G1 X41.589 Y51.127 
G1 X42.729 Y52.267 
G1 X42.396 Y52.267 
G1 X41.589 Y51.460 
G1 X41.589 Y51.794 
G1 X42.062 Y52.267 
G1 X41.729 Y52.267 
G1 X41.589 Y52.127 
G1  F4800.00000
G92 E0
G1 Z13.100 F4800.000
G1 X43.316 Y49.519 F4800.000
G1 Z8.100 F4800.000
G1  F4800.00000
G1 X43.062 Y49.266  F120.000
G1 X42.729 Y49.266 
G1 X43.316 Y49.853 
G1 X43.316 Y50.186 
G1 X42.395 Y49.266 
G1 X42.259 Y49.463 
G1 X43.316 Y50.520 
G1 X43.316 Y50.853 
G1 X42.119 Y49.656 
G1 X41.946 Y49.817 
G1 X43.316 Y51.187 
G1 X43.316 Y51.520 
G1 X41.734 Y49.939 
G1 X41.589 Y50.127 
G1 X43.730 Y52.267 
G1 X44.063 Y52.267 
G1 X43.601 Y51.806 
G1 X43.935 Y51.806 
G1 X44.397 Y52.267 
G1 X44.730 Y52.267 
G1 X44.268 Y51.806 
G1 X44.602 Y51.806 
G1 X45.064 Y52.267 
G1 X45.397 Y52.267 
G1 X44.935 Y51.806 
G1 X45.269 Y51.806 
G1 X45.731 Y52.267 
G1 X46.064 Y52.267 
G1 X45.602 Y51.806 
G1 X45.936 Y51.806 
G1 X46.398 Y52.267 
G1 X46.731 Y52.267 
G1 X46.269 Y51.806 
G1 X46.603 Y51.806 
G1 X47.065 Y52.267 
G1 X47.398 Y52.267 
G1 X46.936 Y51.806 
G1 X47.270 Y51.806 
G1 X47.732 Y52.267 
G1 X48.065 Y52.267 
G1 X47.603 Y51.806 
G1 X47.937 Y51.806 
G1 X48.399 Y52.267 
G1 X48.732 Y52.267 
G1 X48.270 Y51.806 
G1 X48.604 Y51.806 
G1 X49.065 Y52.267 
G1 X49.399 Y52.267 
G1 X48.937 Y51.806 
G1 X49.271 Y51.806 
G1 X49.732 Y52.267 
G1 X50.066 Y52.267 
G1 X49.604 Y51.806 
G1 X49.938 Y51.806 
G1 X50.399 Y52.267 
G1 X50.733 Y52.267 
G1 X50.271 Y51.806 
G1 X50.605 Y51.806 
G1 X51.066 Y52.267 
G1 X51.400 Y52.267 
G1 X50.938 Y51.806 
G1 X51.272 Y51.806 
G1 X51.733 Y52.267 
G1 X52.067 Y52.267 
G1 X51.605 Y51.806 
G1 X51.939 Y51.806 
G1 X52.400 Y52.267 
G1 X52.734 Y52.267 
G1 X52.272 Y51.806 
G1 X52.606 Y51.806 
G1 X53.067 Y52.267 
G1 X53.401 Y52.267 
G1 X52.939 Y51.806 
G1 X53.273 Y51.806 
G1 X53.734 Y52.267 
G1 X54.068 Y52.267 
G1 X53.606 Y51.806 
G1 X53.940 Y51.806 
G1 X54.401 Y52.267 
G1 X54.735 Y52.267 
G1 X54.273 Y51.806 
G1 X54.351 Y51.550 F4800.000
G1 X55.068 Y52.267  F120.000
G1 X55.402 Y52.267 
G1 X54.351 Y51.217 
G1 X54.351 Y50.883 
G1 X55.735 Y52.267 
G1 X56.069 Y52.267 
G1 X54.351 Y50.550 
G1 X54.351 Y50.216 
G1 X56.402 Y52.267 
G1 X56.736 Y52.267 
G1 X54.351 Y49.883 
G1 X54.351 Y49.549 
G1 X57.069 Y52.267 
G1 X57.330 Y52.195 
G1 X54.401 Y49.266 
G1 X54.735 Y49.266 
G1 X56.694 Y51.226 
G1 X56.649 Y50.847 
G1 X55.068 Y49.266 
G1 X55.401 Y49.266 
G1 X56.668 Y50.533 
G1 X56.771 Y50.302 
G1 X55.735 Y49.266 
G1 X56.068 Y49.266 
G1 X56.875 Y50.072 
G1 X57.050 Y49.914 
G1 X56.402 Y49.266 
G1 X56.735 Y49.266 
G1 X57.226 Y49.756 
G1 X57.454 Y49.651 
G1 X57.069 Y49.266 
G1 X57.402 Y49.266 
G1 X57.541 Y49.405 
G1 X57.670 Y49.397 F4800.000
G1 X58.180 Y49.424  F120.000
G1 X58.358 Y49.266 F4800.000
G1 X59.889 Y50.797  F120.000
G1 X59.889 Y50.449 
G1 X58.706 Y49.266 
G1 X59.054 Y49.266 
G1 X59.889 Y50.101 
G1 X59.889 Y49.754 
G1 X59.402 Y49.266 
G1 X59.750 Y49.266 
G1 X59.889 Y49.406 
G1  F4800.00000
G92 E0
G1 Z13.100 F4800.000
G1 X59.069 Y50.324 F4800.000
G1 Z8.100 F4800.000
G1  F4800.00000
G1 X59.889 Y51.145  F120.000
G1 X59.889 Y51.493 
G1 X59.157 Y50.760 
G1 X59.096 Y51.047 
G1 X59.889 Y51.841 
G1 X59.889 Y52.188 
G1 X59.021 Y51.320 
G1 X58.875 Y51.522 
G1 X59.621 Y52.267 
G1 X59.273 Y52.267 
G1 X58.728 Y51.723 
G1 X58.511 Y51.853 
G1 X58.925 Y52.267 
G1 X58.577 Y52.267 
G1 X58.436 Y52.126 
G1 X58.303 Y52.136 F4800.000
G1 X57.771 Y52.164  F120.000
G1 X57.466 Y52.121 
G1  F4800.00000
G92 E0
G1 Z13.100 F4800.000
;M104 S0 ;turn off temperature
M140 S0 ;turn off Bed temperature
G28 X0  home X axis
M84     disable motors

; filament used = 801.6mm (1.9cm3)

; avoid_crossing_perimeters = 0
; bed_shape = 0x0,200x0,200x200,0x200
; bed_temperature = 0
; before_layer_gcode = 
; bridge_acceleration = 0
; bridge_fan_speed = 100
; brim_width = 0
; complete_objects = 0
; cooling = 1
; default_acceleration = 0
; disable_fan_first_layers = 3
; duplicate_distance = 6
; end_gcode = ;M104 S0 ;turn off temperature\nM140 S0 ;turn off Bed temperature\nG28 X0  home X axis\nM84     disable motors\n
; extruder_clearance_height = 20
; extruder_clearance_radius = 20
; extruder_offset = 0x0
; extrusion_axis = E
; extrusion_multiplier = 8
; fan_always_on = 0
; fan_below_layer_time = 60
; filament_colour = #FFFFFF
; filament_diameter = 1.75
; first_layer_acceleration = 0
; first_layer_bed_temperature = 0
; first_layer_extrusion_width = 100%
; first_layer_speed = 2
; first_layer_temperature = 0
; gcode_arcs = 0
; gcode_comments = 0
; gcode_flavor = reprap
; infill_acceleration = 0
; infill_first = 0
; layer_gcode = 
; max_fan_speed = 100
; max_print_speed = 2
; max_volumetric_speed = 0
; min_fan_speed = 35
; min_print_speed = 2
; min_skirt_length = 0
; notes = 
; nozzle_diameter = 0.3
; only_retract_when_crossing_perimeters = 0
; ooze_prevention = 1
; output_filename_format = TEMP__copper_top_+_copper.gcode
; perimeter_acceleration = 0
; post_process = 
; pressure_advance = 0
; resolution = 0
; retract_before_travel = 1
; retract_layer_change = 0
; retract_length = 30
; retract_length_toolchange = 0
; retract_lift = 5
; retract_restart_extra = 0
; retract_restart_extra_toolchange = 0
; retract_speed = 80
; skirt_distance = 6
; skirt_height = 1
; skirts = 0
; slowdown_below_layer_time = 2
; spiral_vase = 0
; standby_temperature_delta = -5
; start_gcode = ;CALIBRATION_START\nG1 Z15 F5000;lift nozzle\nG1 \nG90 \nG28 \nF4800\n;CALIBRATION_END
; temperature = 0
; threads = 2
; toolchange_gcode = 
; travel_speed = 80
; use_firmware_retraction = 0
; use_relative_e_distances = 0
; use_volumetric_e = 0
; vibration_limit = 0
; wipe = 0
; z_offset = 7.8
; dont_support_bridges = 1
; extrusion_width = 0
; first_layer_height = 0.3
; infill_only_where_needed = 0
; interface_shells = 0
; layer_height = 0.3
; raft_layers = 0
; seam_position = aligned
; support_material = 0
; support_material_angle = 0
; support_material_contact_distance = 0.2
; support_material_enforce_layers = 0
; support_material_extruder = 1
; support_material_extrusion_width = 0
; support_material_interface_extruder = 1
; support_material_interface_layers = 3
; support_material_interface_spacing = 0
; support_material_interface_speed = 100%
; support_material_pattern = pillars
; support_material_spacing = 2.5
; support_material_speed = 60
; support_material_threshold = 0
; xy_size_compensation = 0
; bottom_solid_layers = 3
; bridge_flow_ratio = 1
; bridge_speed = 60
; external_fill_pattern = rectilinear
; external_perimeter_extrusion_width = 0
; external_perimeter_speed = 50%
; external_perimeters_first = 0
; extra_perimeters = 1
; fill_angle = 45
; fill_density = 100%
; fill_pattern = rectilinear
; gap_fill_speed = 2
; infill_every_layers = 1
; infill_extruder = 1
; infill_extrusion_width = 0
; infill_overlap = 15%
; infill_speed = 2
; overhangs = 1
; perimeter_extruder = 1
; perimeter_extrusion_width = 0
; perimeter_speed = 2
; perimeters = 3
; small_perimeter_speed = 2
; solid_infill_below_area = 70
; solid_infill_every_layers = 0
; solid_infill_extruder = 1
; solid_infill_extrusion_width = 0
; solid_infill_speed = 2
; thin_walls = 1
; top_infill_extrusion_width = 0
; top_solid_infill_speed = 2
; top_solid_layers = 3



